Volcano Name,Country,Region,Latitude,Longitude,Elev,Type,Status
Abu,Japan,Honshu-Japan,34.5,131.6,571,Shield volcano,Holocene
Acamarachi,Chile,Chile-N,-23.3,-67.62,6046,Stratovolcano,Holocene
Acatenango,Guatemala,Guatemala,14.5,-90.88,3976,Stratovolcano,Historical
Acigol-Nevsehir,Turkey,Turkey,38.57,34.52,1689,Maar,Holocene
Adams,United States,US-Washington,46.21,-121.49,3742,Stratovolcano,Tephrochronology
Adatara,Japan,Honshu-Japan,37.62,140.28,1718,Stratovolcano,Historical
Adwa,Ethiopia,Africa-NE,10.07,40.84,1733,Stratovolcano,Holocene
Afdera,Ethiopia,Africa-NE,13.08,40.85,1295,Stratovolcano,Holocene
Agmagan-Karadag,Armenia,Armenia,40.28,44.75,3560,Volcanic field,Holocene
Agrigan,United States,Mariana Is-C Pacific,18.77,145.67,965,Stratovolcano,Historical
Agua,Guatemala,Guatemala,14.47,-90.74,3760,Stratovolcano,Holocene
Agua de Pau,Portugal,Azores,37.77,-25.47,947,Stratovolcano,Historical
Aguilera,Chile,Chile-S,-50.17,-73.83,0,Stratovolcano,Radiocarbon
Agung,Indonesia,Lesser Sunda Is,-8.34,115.51,3142,Stratovolcano,Historical
Ahyi,United States,Mariana Is-C Pacific,20.42,145.03,-137,Submarine volcano,Uncertain
Akademia Nauk,Russia,Kamchatka,53.98,159.45,1180,Stratovolcanoes,Historical
Akademia Nauk,Russia,Kamchatka,53.98,159.45,1180,Stratovolcano,Historical
Akagi,Japan,Honshu-Japan,36.53,139.18,1828,Stratovolcano,Historical
Akan,Japan,Hokkaido-Japan,43.38,144.02,1499,Caldera,Historical
Akhtang,Russia,Kamchatka,55.43,158.65,1956,Shield volcano,Holocene
Akita-Komaga-take,Japan,Honshu-Japan,39.75,140.8,1637,Stratovolcano,Historical
Akita-Yake-yama,Japan,Honshu-Japan,39.97,140.77,1366,Complex volcano,Historical
Akuseki-jima,Japan,Ryukyu Is,29.46,129.6,584,Stratovolcanoes,Holocene?
Akuseki-jima,Japan,Ryukyu Is,29.45,129.6,586,Stratovolcano,Holocene
Akutan,United States,Aleutian Is,54.13,-165.97,1303,Stratovolcano,Historical
Alaid,Russia,Kuril Is,50.86,155.55,2339,Stratovolcano,Historical
Alamagan,United States,Mariana Is-C Pacific,17.6,145.83,744,Stratovolcano,Radiocarbon
Alayta,Ethiopia,Africa-NE,12.88,40.57,1501,Shield volcano,Historical
Albano. Monte,Italy,Italy,41.73,12.7,949,Caldera,Holocene
Alcedo. Volcan,Ecuador,Galapagos,-0.43,-91.12,1130,Shield volcano,Historical
Ale Bagu,Ethiopia,Africa-NE,13.52,40.63,1031,Stratovolcano,Holocene
Alid,Eritrea,Africa-NE,14.88,39.92,904,Stratovolcano,Holocene
Alligator Lake,Canada,Canada,60.42,-135.42,2217,Volcanic field,Holocene
Almolonga,Guatemala,Guatemala,14.82,-91.48,3197,Stratovolcano,Historical
Alney-Chashakondzha,Russia,Kamchatka,56.7,159.65,2598,Stratovolcano,Holocene
Alngey,Russia,Kamchatka,57.7,160.4,1853,Stratovolcano,Holocene
Alu,Ethiopia,Africa-NE,13.82,40.55,429,Fissure vent,Holocene
Alutu,Ethiopia,Africa-NE,7.77,38.78,2335,Stratovolcano,Holocene
Amak,United States,Aleutian Is,55.42,-163.15,513,Stratovolcano,Historical
Amasing,Indonesia,Halmahera-Indonesia,-0.55,127.5,1030,Stratovolcano,Holocene
Ambalatungan Group,Philippines,Luzon-Philippines,17.32,121.1,2329,Compound volcano,Fumarolic
Ambang,Indonesia,Sulawesi-Indonesia,0.75,124.42,1795,Complex volcano,Historical
Ambitle,Papua New Guinea,New Ireland-SW Pacif,-4.08,153.65,450,Stratovolcano,Radiocarbon
Amboy,United States,US-California,34.55,-115.78,288,Cinder cone,Holocene
Ambre-Bobaomby,Madagascar,Madagascar,-12.48,49.1,1475,Volcanic field,Holocene
Ambrym,Vanuatu,Vanuatu-SW Pacific,-16.25,168.12,1334,Pyroclastic shield,Historical
Amorong,Philippines,Luzon-Philippines,15.83,120.81,376,Unknown,Fumarolic
Amsterdam Island,Indian Ocean,Indian O-S,-37.83,77.52,881,Stratovolcano,Holocene
Amukta,United States,Aleutian Is,52.5,-171.25,1066,Stratovolcano,Historical
Anatahan,United States,Mariana Is-C Pacific,16.35,145.67,788,Stratovolcano,Holocene
Anaun,Russia,Kamchatka,56.32,158.83,1828,Stratovolcano,Holocene
Andahua Valley,Peru,Peru,-15.42,-72.33,4713,Cinder cone,Holocene
Andrus,Antarctica,Antarctica,-75.8,-132.33,2978,Shield volcano,Holocene
Aneityum,Vanuatu,Vanuatu-SW Pacific,-20.2,169.83,852,Stratovolcano,Holocene
Aniakchak,United States,Alaska Peninsula,56.88,-158.17,1341,Caldera,Historical
Ankaizina Field,Madagascar,Madagascar,-14.3,48.67,2878,Cinder cone,Holocene
Ankaratra Field,Madagascar,Madagascar,-19.4,47.2,2644,Cinder cone,Holocene
Antillanca Group,Chile,Chile-C,-40.77,-72.15,1990,Stratovolcano,Holocene
Antipodes Island,New Zealand,Pacific-S,-49.68,178.77,402,Pyroclastic cones,Holocene?
Antisana,Ecuador,Ecuador,-0.48,-78.14,5753,Stratovolcano,Historical
Antofagasta de la Sierra,Argentina,Argentina,-26.08,-67.5,4000,Scoria cones,Holocene
Antofagasta de la Sierra,Argentina,Argentina,-26.08,-67.5,4000,Scoria cone,Holocene
Antofalla,Argentina,Argentina,-25.53,-68,6100,Stratovolcano,Holocene
Antuco,Chile,Chile-C,-37.41,-71.35,2979,Stratovolcano,Historical
Aoba,Vanuatu,Vanuatu-SW Pacific,-15.4,167.83,1496,Shield volcano,Historical
Aoga-shima,Japan,Izu Is-Japan,32.45,139.77,423,Stratovolcano,Historical
Apaneca Range,El Salvador,El Salvador,13.89,-89.79,2036,Stratovolcano,Holocene
Apastepeque Field,El Salvador,El Salvador,13.72,-88.77,700,Volcanic field,Holocene
Apo,Philippines,Mindanao-Philippines,6.99,125.27,2954,Stratovolcano,Fumarolic
Apoyeque,Nicaragua,Nicaragua,12.24,-86.34,518,Pyroclastic shield,Radiocarbon
Aracar,Argentina,Argentina,-24.25,-67.77,6082,Stratovolcano,Uncertain
Aracar,Argentina,Argentina,-24.27,-67.77,6082,Stratovolcano,Historical
Aragats,Armenia,Armenia,40.55,44.12,4090,Stratovolcano,Holocene
Aramuaca. Laguna,El Salvador,El Salvador,13.43,-88.11,180,Maar,Holocene
Ararat,Turkey,Turkey,39.7,44.28,5165,Stratovolcano,Holocene
Arayat,Philippines,Luzon-Philippines,15.2,120.74,1026,Stratovolcano,Holocene
Ardoukoba,Djibouti,Africa-NE,11.58,42.47,298,Fissure vent,Historical
Arenal,Costa Rica,Costa Rica,10.46,-84.7,1657,Stratovolcano,Historical
Arenales,Chile,Chile-S,-47.2,-73.48,3437,Stratovolcano,Historical
Arhab. Harra of,Yemen,Arabia-S,15.63,44.08,3100,Volcanic field,Historical
Arjuno-Welirang,Indonesia,Java,-7.73,112.58,3339,Stratovolcano,Historical
Arshan,China,China-E,47.5,120.7,,Cinder cones,Radiocarbon
Asama,Japan,Honshu-Japan,36.4,138.53,2560,Complex volcano,Historical
Asavyo,Ethiopia,Africa-NE,13.07,41.6,1200,Shield volcano,Holocene
Ascension,Atlantic Ocean,Atlantic-S,-7.95,-14.37,858,Stratovolcano,Holocene
Askja,Iceland,Iceland-NE,65.03,-16.75,1516,Stratovolcano,Historical
Aso,Japan,Kyushu-Japan,32.88,131.1,1592,Caldera,Historical
Assab Volc Field,Eritrea,Africa-NE,12.95,42.43,987,Volcanic field,Holocene
Asuncion,United States,Mariana Is-C Pacific,19.67,145.4,857,Stratovolcano,Historical
Atacazo,Ecuador,Ecuador,-0.35,-78.62,4463,Stratovolcano,Radiocarbon
Atakor Volc Field,Algeria,Africa-N,23.33,5.83,2918,Scoria cones,Holocene
Atitlan,Guatemala,Guatemala,14.58,-91.19,3535,Stratovolcano,Historical
Atka,United States,Aleutian Is,52.38,-174.15,1533,Stratovolcano,Historical
Atlasova,Russia,Kamchatka,57.97,160.65,1764,Shield volcano,Holocene
Atlixcos. Cerro Los,Mexico,Mexico,19.81,-96.53,800,Shield volcano,Holocene
Atsonupuri,Russia,Kuril Is,44.8,147.13,1205,Stratovolcano,Historical
Atuel. Caldera del,Argentina,Argentina,-34.65,-70.05,5189,Caldera,Holocene
Auckland Field,New Zealand,New Zealand,-36.9,174.87,260,Volcanic field,Radiocarbon
Augustine,United States,Alaska-SW,59.37,-153.42,1252,Lava dome,Historical
Avachinsky,Russia,Kamchatka,53.26,158.83,2741,Stratovolcano,Historical
Awu,Indonesia,Sangihe Is-Indonesia,3.67,125.5,1320,Stratovolcano,Historical
Axial Seamount,Pacific Ocean,Pacific-NE,45.95,-130,-1500,Submarine volcano,Historical
Ayelu,Ethiopia,Africa-NE,10.08,40.7,2145,Stratovolcano,Holocene
Azufral. Volcan,Colombia,Colombia,1.08,-77.68,4070,Stratovolcano,Radiocarbon
Azul. Cerro,Ecuador,Galapagos,-0.9,-91.42,1690,Shield volcano,Historical
Azul. Cerro [Quizapu],Chile,Chile-C,-35.65,-70.76,3788,Stratovolcano,Historical
Azul. Volcan,Nicaragua,Nicaragua,12.53,-83.87,201,Cinder cone,Holocene
Azuma,Japan,Honshu-Japan,37.73,140.25,2024,Stratovolcano,Historical
Babuyan Claro,Philippines,Luzon-N of,19.52,121.94,1180,Stratovolcano,Historical
Bachelor,United States,US-Oregon,43.98,-121.69,2763,Stratovolcano,Tephrochronology
Bagana,Papua New Guinea,Bougainville-SW Paci,-6.14,155.2,1750,Lava cone,Historical
Bakenin,Russia,Kamchatka,53.91,158.07,2278,Stratovolcano,Tephrochronology
Baker,United States,US-Washington,48.79,-121.82,3285,Stratovolcano,Historical
Bal Haf. Harra of,Yemen,Arabia-S,14.05,48.33,233,Volcanic field,Holocene
Balatocan,Philippines,Mindanao-Philippines,8.8,124.92,2450,Compound volcano,Fumarolic
Balbi,Papua New Guinea,Bougainville-SW Paci,-5.83,154.98,2715,Stratovolcano,Holocene
Bald Knoll,United States,US-Utah,37.33,-112.41,2135,Cinder cone,Holocene
Baluan,United States,Admiralty Is-SW Paci,-2.57,147.28,254,Stratovolcano,Holocene
Baluran,Indonesia,Java,-7.85,114.37,1247,Stratovolcano,Holocene
Balut,Philippines,Mindanao-Philippines,5.4,125.38,852,Stratovolcano,Holocene
Bam,Papua New Guinea,New Guinea-NE of,-3.6,144.85,685,Stratovolcano,Historical
Bamus,Papua New Guinea,New Britain-SW Pac,-5.2,151.23,2248,Stratovolcano,Anthropology
Banahao,Philippines,Luzon-Philippines,14.07,121.48,2158,Complex volcano,Holocene
Banda Api,Pacific Ocean,Banda Sea,-4.53,129.87,640,Caldera,Historical
Bandai,Japan,Honshu-Japan,37.6,140.08,1819,Stratovolcano,Historical
Banua Wuhu,Indonesia,Sangihe Is-Indonesia,3.14,125.49,-5,Submarine volcano,Historical
Baransky,Russia,Kuril Is,45.1,148.02,1132,Stratovolcano,Historical
Barcena,Mexico,Mexico-Is,19.3,-110.82,332,Cinder cone,Historical
Bardarbunga,Iceland,Iceland-NE,64.63,-17.53,2000,Stratovolcano,Historical
Barkhatnaya Sopka,Russia,Kamchatka,52.82,158.27,870,Lava dome,Tephrochronology
Barren Island,India,Andaman Is-Indian O,12.29,93.88,354,Stratovolcano,Historical
Barrier. The,Kenya,Africa-E,2.32,36.57,1032,Shield volcano,Historical
Baru,Panama,Panama,8.8,-82.56,3477,Complex volcano,Historical
Barva,Costa Rica,Costa Rica,10.14,-84.1,2906,Complex volcano,Tephrochronology
Bas Dong Nai,Vietnam,SE Asia,10.8,107.2,392,Volcanic field,Holocene
Batur,Indonesia,Lesser Sunda Is,-8.24,115.38,1717,Caldera,Historical
Bayo. Cerro,Argentina,Chile-N,-25.42,-68.58,5401,Complex volcano,Holocene
Bayonnaise Rocks,Japan,Izu Is-Japan,31.92,139.92,10,Submarine volcano,Historical
Bayuda Volc Field,Sudan,Africa-N,18.33,32.75,0,Cinder cone,Radiocarbon
Bazman,Iran,Iran,28.07,60,3490,Stratovolcano,Fumarolic
Behm Canal-Rudyerd Bay,United States,Alaska-SE,55.32,-131.05,500,Cinder cone,Holocene
Belenkaya,Russia,Kamchatka,51.75,157.27,892,Stratovolcano,Holocene
Belirang-Beriti,Indonesia,Sumatra,-2.82,102.18,1958,Compound volcano,Fumarolic
Belknap,United States,US-Oregon,44.29,-121.84,2095,Shield volcano,Radiocarbon
Bely,Russia,Kamchatka,57.88,160.53,2080,Shield volcano,Holocene
Berlin,Antarctica,Antarctica,-76.05,-136,3478,Shield volcano,Fumarolic
Beru,Ethiopia,Africa-NE,8.95,39.75,1100,Volcanic field,Holocene
Berutarube,Russia,Kuril Is,44.47,146.93,1220,Stratovolcano,Holocene
Besar,Indonesia,Sumatra,-4.43,103.67,1899,Stratovolcano,Historical
Bezymianny,Russia,Kamchatka,55.98,160.59,2882,Stratovolcano,Historical
Bibinoi,Indonesia,Halmahera-Indonesia,-0.78,127.72,900,Stratovolcano,Holocene
Big Cave,United States,US-California,40.96,-121.37,1259,Shield volcano,Holocene
Bilate River Field,Ethiopia,Africa-NE,7.07,38.1,1700,Maar,Holocene
Biliran,Philippines,Philippines-C,11.52,124.53,1187,Compound volcano,Historical
Billy Mitchell,Papua New Guinea,Bougainville-SW Paci,-6.09,155.23,1544,Pyroclastic shield,Radiocarbon
Bir Borhut,Yemen,Arabia-S,15.55,50.63,0,Volcanic field,Holocene
Birk. Harrat al,Saudi Arabia,Arabia-W,18.37,41.63,381,Volcanic field,Holocene
Bishoftu Volc Field,Ethiopia,Africa-NE,8.78,38.98,1850,Fissure vent,Holocene
Biu Plateau,Nigeria,Africa-W,10.75,12,0,Volcanic field,Holocene
Black Peak,United States,Alaska Peninsula,56.53,-158.8,1032,Stratovolcano,Radiocarbon
Black Rock Desert,United States,US-Utah,38.97,-112.5,1800,Volcanic field,Radiocarbon
Blanca. Loma,Chile,Chile-C,-36.29,-71.01,2268,Stratovolcano,Holocene
Bliznets,Russia,Kamchatka,56.97,159.78,1244,Stratovolcano,Holocene
Bliznetsy,Russia,Kamchatka,57.35,161.37,265,Lava cone,Radiocarbon
Blue Lake Crater,United States,US-Oregon,44.42,-121.77,1230,Maar,Radiocarbon
Blup Blup,Papua New Guinea,New Guinea-NE of,-3.51,144.62,402,Stratovolcano,Holocene
Bobrof,United States,Aleutian Is,51.9,-177.43,738,Stratovolcano,Holocene
Bogatyr Ridge,Russia,Kuril Is,44.83,147.37,1634,Stratovolcano,Holocene
Bogoslof,United States,Aleutian Is,53.93,-168.03,101,Submarine volcano,Historical
Boisa,Papua New Guinea,New Guinea-NE of,-3.99,144.96,240,Stratovolcano,Holocene
Bola,Papua New Guinea,New Britain-SW Pac,-5.15,150.03,1155,Stratovolcano,Holocene
Bolshe-Bannaya,Russia,Kamchatka,52.9,157.78,1200,Lava dome,Holocene
Bolshoi Payalpan,Russia,Kamchatka,55.88,157.78,1906,Shield volcano,Holocene
Bolshoi Semiachik,Russia,Kamchatka,54.32,160.02,1720,Stratovolcano,Radiocarbon
Bolshoi-Kekuknaysky,Russia,Kamchatka,56.47,157.8,1401,Shield volcano,Holocene
Bombalai,Malaysia,Borneo,4.4,117.88,531,Pyroclastic cone,Holocene
Bona-Churchill,United States,Alaska-E,61.38,-141.75,5005,Stratovolcano,Radiocarbon
Boomerang Seamount,Antarctica,Indian O.-S,-37.72,77.83,-650,Submarine volcano,Historical
Bora-Bericcio Complex,Ethiopia,Africa-NE,8.27,39.03,2285,Pumice cone,Holocene
Borale Ale,Ethiopia,Africa-NE,13.73,40.6,668,Stratovolcano,Holocene
Borawli,Ethiopia,Africa-NE,13.3,40.98,812,Stratovolcano,Holocene
Borawli Complex,Ethiopia,Africa-NE,11.63,41.45,875,Lava dome,Holocene
Boset-Bericha,Ethiopia,Africa-NE,8.56,39.48,2447,Stratovolcano,Holocene
Bouvet,Bouvet I.,Atlantic-S,-54.42,3.35,780,Shield volcano,Magnetism
Bratan,Indonesia,Lesser Sunda Is,-8.28,115.13,2276,Caldera,Holocene
Brava,Cape Verde,Cape Verde Is,14.85,-24.72,900,Stratovolcano,Holocene
Bravo. Cerro,Colombia,Colombia,5.09,-75.3,4000,Stratovolcano,Radiocarbon
Bravo. Cerro,Colombia,Colombia,5.09,-75.3,4000,Stratovolcano,Radiocarbon
Brennisteinsfjoll,Iceland,Iceland-SW,63.92,-21.83,626,Crater rows,Historical
Bridge River Cones,Canada,Canada,50.8,-123.4,2500,Volcanic field,Holocene
Bridgeman Island,Antarctica,Antarctica,-62.05,-56.75,240,Stratovolcano,Uncertain
Brimstone Island,New Zealand,Kermadec Is,-30.23,-178.92,-2000,Submarine volcano,Uncertain
Bristol Island,Antarctica,Antarctica,-59.03,-26.58,1100,Stratovolcano,Historical
Brothers,New Zealand,New Zealand,-34.88,179.08,-1350,Submarine volcano,Fumarolic
Brushy Butte,United States,US-California,41.18,-121.44,1174,Shield volcano,Holocene
Buckle Island,Antarctica,Antarctica,-66.8,163.25,1239,Stratovolcano,Historical
Bud Dajo,Philippines,Sulu Is-Philippines,5.95,121.07,440,Pyroclastic cone,Historical
Bufumbira,Uganda,Africa-C,-1.23,29.72,2440,Cinder cone,Holocene
Buldir,United States,Aleutian Is,52.37,175.98,656,Stratovolcano,Holocene
Bulusan,Philippines,Luzon-Philippines,12.77,124.05,1565,Stratovolcano,Historical
Bunyaruguru Field,Uganda,Africa-C,-0.2,30.08,1554,Explosion crater,Holocene
Burney. Monte,Chile,Chile-S,-52.33,-73.4,1758,Stratovolcano,Historical
Bus-Obo,Mongolia,Mongolia,47.12,109.08,1162,Cinder cone,Holocene
Butajiri-Silti Field,Ethiopia,Africa-NE,8.05,38.35,2281,Fissure vent,Holocene
Buzzard Creek,United States,Alaska-E,64.07,-148.42,830,Tuff rings,Radiocarbon
Cabalian,Philippines,Philippines-C,10.29,125.22,945,Stratovolcano,Holocene
Caburga,Chile,Chile-C,-39.2,-71.83,995,Cinder cone,Tephrochronology
Cagua,Philippines,Luzon-Philippines,18.22,122.12,1133,Stratovolcano,Holocene
Calabozos,Chile,Chile-C,-35.56,-70.5,3508,Caldera,Holocene
Calatrava Volc Field,Spain,Spain,38.87,-4.02,1117,Pyroclastic cones,Radiocarbon
Calayo,Philippines,Mindanao-Philippines,7.88,125.07,646,Tuff cone,Historical
Calbuco,Chile,Chile-S,-41.33,-72.61,2003,Stratovolcano,Historical
Callaqui,Chile,Chile-C,-37.92,-71.45,3164,Stratovolcano,Historical
Cameroon. Mt.,Cameroon,Africa-W,4.2,9.17,4095,Stratovolcano,Historical
Camiguin,Philippines,Mindanao-Philippines,9.2,124.67,1332,Stratovolcano,Historical
Camiguin de Babuyanes,Philippines,Luzon-N of,18.83,121.86,712,Stratovolcano,Historical
Campi Flegrei,Italy,Italy,40.83,14.14,458,Caldera,Historical
Campi Flegrei Mar Sicilia,Italy,Italy,37.1,12.7,-8,Submarine volcanoes,Historical
Candlemas Island,Antarctica,Antarctica,-57.08,-26.67,550,Stratovolcano,Historical
Carlisle,United States,Aleutian Is,52.9,-170.05,1620,Stratovolcano,Historical
Carran-Los Venados,Chile,Chile-C,-40.35,-72.07,1114,Pyroclastic cone,Historical
Carrizozo,United States,US-New Mexico,33.78,-105.93,1731,Cinder cone,Holocene
Casiri. Nevados,Peru,Peru,-17.47,-69.82,5650,Stratovolcano,Holocene
Cayambe,Ecuador,Ecuador,0.03,-77.99,5790,Compound volcano,Historical
Cayambe,Ecuador,Ecuador,0.03,-77.99,5790,Compound volcano,Historical
Cayute-La Vigueria,Chile,Chile-S,-41.25,-72.27,506,Pyroclastic cone,Holocene
Cayutué-La Viguería,Chile,Chile-S,-41.25,-72.27,506,Pyroclastic cones,Tephrochronology
Ceboruco,Mexico,Mexico,21.13,-104.51,2280,Stratovolcano,Historical
Cendres. Ile des,Vietnam,SE Asia,10.16,109.01,-20,Submarine volcanoes,Historical
Central Island,Kenya,Africa-E,3.5,36.04,550,Stratovolcano,Holocene
Cereme,Indonesia,Java,-6.89,108.4,3078,Stratovolcano,Historical
Ch'uga-ryong,North Korea,Korea,38.33,127.33,452,Shield volcano,Holocene
Chacana,Ecuador,Ecuador,-0.38,-78.25,4643,Caldera,Historical
Chachani. Nevado,Peru,Peru,-16.19,-71.53,6057,Stratovolcano,Holocene
Chachani. Nevado,Peru,Peru,-16.19,-71.53,6057,Stratovolcano,Holocene?
Chagulak,United States,Aleutian Is,52.57,-171.13,1142,Stratovolcano,Holocene
Chaine des Puys,France,France,45.78,2.97,1464,Cinder cone,Radiocarbon
Chaiten,Chile,Chile-S,-42.83,-72.65,962,Caldera,Holocene
Changbaishan,North Korea,China-E,41.98,128.08,2744,Stratovolcano,Historical
Chapulul. Cerro,Chile,Chile-C,-38.37,-71.08,2143,Cinder cone,Holocene
Cherny,Russia,Kamchatka,56.82,159.67,1778,Stratovolcano,Holocene
Cherpuk Group,Russia,Kamchatka,55.55,157.47,1868,Pyroclastic cones,Radiocarbon
Chichinautzin,Mexico,Mexico,19.08,-99.13,3930,Volcanic field,Radiocarbon
Chichon. El,Mexico,Mexico,17.36,-93.23,1150,Tuff cone,Historical
Chiginagak,United States,Alaska Peninsula,57.13,-157,2075,Stratovolcano,Historical
Chikurachki,Russia,Kuril Is,50.33,155.46,1816,Stratovolcano,Historical
Chiliques,Chile,Chile-N,-23.58,-67.7,5778,Stratovolcano,Holocene?
Chiliques,Chile,Chile-N,-23.58,-67.7,5778,Stratovolcano,Holocene
Chillan. Nevados de,Chile,Chile-C,-36.86,-71.38,3212,Stratovolcano,Historical
Chimborazo,Ecuador,Ecuador,-1.46,-78.82,6310,Stratovolcano,Radiocarbon
Chinameca,El Salvador,El Salvador,13.48,-88.32,1228,Stratovolcano,Holocene
Chingo Volc Field,Guatemala,Guatemala,14.12,-89.73,1775,Stratovolcano,Holocene
Chiquimula Volc Field,Guatemala,Guatemala,14.83,-89.55,1192,Cinder cone,Holocene
Chiracha,Ethiopia,Africa-NE,6.65,38.12,1650,Stratovolcano,Holocene
Chirinkotan,Russia,Kuril Is,48.98,153.48,724,Stratovolcano,Historical
Chirip,Russia,Kuril Is,45.38,147.92,1589,Stratovolcano,Historical
Chirpoi,Russia,Kuril Is,46.53,150.88,742,Caldera,Historical
Chokai,Japan,Honshu-Japan,39.08,140.03,2237,Stratovolcano,Historical
Chyulu Hills,Kenya,Africa-E,-2.68,37.88,2188,Volcanic field,Anthropology
Ciguatepe. Cerro El,Nicaragua,Nicaragua,12.53,-86.14,603,Stratovolcano,Holocene
Cinnamon Butte,United States,US-Oregon,43.24,-122.11,1956,Cinder cone,Holocene
Cinotepec. Cerro,El Salvador,El Salvador,14.02,-89.25,665,Volcanic field,Holocene
Clark,New Zealand,New Zealand,-36.45,177.84,-860,Submarine volcano,Fumarolic
Clear Lake,United States,US-California,38.97,-122.77,1439,Volcanic field,Holocene
Cleft Segment,Pacific Ocean,Pacific-NE,44.83,-130.3,-2140,Submarine volcano,Historical
Cleveland,United States,Aleutian Is,52.82,-169.95,1730,Stratovolcano,Historical
Coatepeque Caldera,El Salvador,El Salvador,13.87,-89.55,746,Caldera,Holocene
Cochons. Ile Aux,Indian Ocean,Indian O-S,-46.1,50.23,775,Stratovolcano,Holocene
Cofre de Perote,Mexico,Mexico,19.49,-97.15,4282,Shield volcano,Radiocarbon
Colachi,Chile,Chile-N,-23.23,-67.65,5631,Stratovolcano,Holocene
Coleman Seamount,Solomon Is.,Solomon Is-SW Pacifi,-8.83,157.17,0,Submarine volcano,Holocene
Colima,Mexico,Mexico,19.51,-103.62,3850,Stratovolcano,Historical
Colluma. Cerro,Bolivia,Bolivia,-18.5,-68.07,3876,Maar,Holocene
Colo [Una Una],Indonesia,Sulawesi-Indonesia,-0.17,121.61,507,Stratovolcano,Historical
Comondu-La Purisima,Mexico,Mexico,26,-111.92,780,Volcanic field,Holocene
Concepcion,Nicaragua,Nicaragua,11.54,-85.62,1700,Stratovolcano,Historical
Conchagua,El Salvador,El Salvador,13.28,-87.85,1250,Stratovolcano,Uncertain
Conchaguita,El Salvador,El Salvador,13.22,-87.77,550,Stratovolcano,Historical
Cook. Isla,Chile,Chile-S,-54.95,-70.27,150,Lava dome,Holocene
Copahue,Chile,Chile-C,-37.85,-71.17,2965,Stratovolcano,Historical
Copiapo,Chile,Chile-N,-27.3,-69.13,6052,Stratovolcano,Uncertain
Corbetti Caldera,Ethiopia,Africa-NE,7.18,38.43,2320,Caldera,Holocene
Corcovado,Chile,Chile-S,-43.18,-72.8,2300,Stratovolcano,Historical
Cordon Chalviri,Chile,Chile-N,-23.85,-67.62,5623,Stratovolcano,Holocene
Cordon de Puntas Negras,Chile,Chile-N,-23.75,-67.53,5852,Stratovolcano,Holocene
Cordon del Azufre,Argentina,Chile-N,-25.33,-68.52,5463,Complex volcano,Holocene
Coronado,Mexico,Mexico,29.08,-113.51,440,Stratovolcano,Fumarolic
Coropuna,Peru,Peru,-15.52,-72.65,6377,Stratovolcano,Holocene
Corvo,Portugal,Azores,39.67,-31.07,715,Stratovolcano,Holocene
Cosiguina,Nicaragua,Nicaragua,12.98,-87.57,872,Stratovolcano,Historical
Coso Volc Field,United States,US-California,36.03,-117.82,2400,Lava dome,Holocene
Cotopaxi,Ecuador,Ecuador,-0.68,-78.44,5911,Stratovolcano,Historical
Crater Basalt Volc Field,Argentina,Chile-S/Argentina,-42.02,-70.18,1359,Cinder cones,Holocene
Crater Lake,United States,US-Oregon,42.93,-122.12,2487,Caldera,Radiocarbon
Crater Mountain,Papua New Guinea,New Guinea,-6.58,145.08,3233,Stratovolcano,Holocene
Craters of the Moon,United States,US-Idaho,43.42,-113.5,2005,Cinder cone,Radiocarbon
Crow Lagoon,Canada,Canada,54.7,-130.23,335,Pyroclastic cone,Holocene
Cu-Lao Re Group,Vietnam,SE Asia,15.38,109.12,181,Volcanic field,Holocene
Cuicocha,Ecuador,Ecuador,0.31,-78.36,3246,Caldera,Radiocarbon
Cuilapa-Barbarena,Guatemala,Guatemala,14.33,-90.4,1454,Volcanic field,Holocene
Cuilapa-Barbarena,Guatemala,Guatemala,14.33,-90.4,1454,Volcanic field,Holocene
Cumbal,Colombia,Colombia,0.98,-77.88,4764,Stratovolcano,Historical
Cumbres. Las,Mexico,Mexico,19.15,-97.27,3940,Stratovolcano,Radiocarbon
Curacoa,Tonga,Tonga-SW Pacific,-15.62,-173.67,-33,Submarine volcano,Historical
Curacoa,Tonga,Tonga-SW Pacific,-15.62,-173.67,-33,Submarine volcano,Historical
Curtis Island,New Zealand,Kermadec Is,-30.54,-178.56,137,Submarine volcano,Uncertain
Cóndor. Cerro el,Argentina,Argentina,-26.62,-68.35,6532,Stratovolcano,Holocene
Dabbahu,Ethiopia,Africa-NE,12.6,40.48,1442,Stratovolcano,Holocene
Dabbayra,Ethiopia,Africa-NE,12.38,40.07,1302,Shield volcano,Holocene
Dacht-I-Navar Group,Afghanistan,Afghanistan,33.95,67.92,3800,Lava dome,Holocene
Daikoku,Japan,Volcano Is-Japan,21.32,144.19,-323,Submarine volcano,Fumarolic
Daisetsu,Japan,Hokkaido-Japan,43.68,142.88,2290,Stratovolcano,Tephrochronology
Dakataua,Papua New Guinea,New Britain-SW Pac,-5.06,150.11,400,Caldera,Anthropology
Dalaffilla,Ethiopia,Africa-NE,13.79,40.55,613,Stratovolcano,Holocene
Dallol,Ethiopia,Africa-NE,14.24,40.3,-48,Explosion crater,Historical
Dama Ali,Ethiopia,Africa-NE,11.28,41.63,1068,Shield volcano,Historical
Damavand,Iran,Iran,35.95,52.11,5670,Stratovolcano,Holocene
Dana,United States,Alaska Peninsula,55.62,-161.22,1354,Stratovolcano,Radiocarbon
Danau Complex,Indonesia,Java,-6.2,105.97,1778,Caldera,Holocene
Dar-Alages,Armenia,Armenia,39.7,45.54,3329,Unknown,Holocene
Dariganga Volc Field,Mongolia,Mongolia,45.33,114,1778,Cinder cone,Holocene
Darwin. Volcan,Ecuador,Galapagos,-0.18,-91.28,1330,Shield volcano,Holocene
Daun. Bukit,Indonesia,Sumatra,-3.38,102.37,2467,Stratovolcano,Fumarolic
Davidof,United States,Aleutian Is,51.97,178.33,328,Stratovolcano,Holocene
Davis Lake,United States,US-Oregon,43.57,-121.82,2163,Volcanic field,Radiocarbon
Dawson Strait Group,Papua New Guinea,D'Entrecasteaux Is,-9.62,150.88,500,Volcanic field,Hydration Rind
Deception Island,Antarctica,Antarctica,-62.97,-60.65,576,Caldera,Historical
Demon,Russia,Kuril Is,45.5,148.85,1205,Stratovolcano,Holocene
Dempo,Indonesia,Sumatra,-4.03,103.13,3173,Stratovolcano,Historical
Denison,United States,Alaska Peninsula,58.42,-154.45,2318,Stratovolcano,Uncertain
Descabezado Grande,Chile,Chile-C,-35.58,-70.75,3953,Stratovolcano,Historical
Devils Garden,United States,US-Oregon,43.51,-120.86,1698,Volcanic field,Holocene
Dgida Basin,Russia,Russia-SE,50.52,103.25,1500,Cinder cone,Holocene
Dhamar. Harras of,Yemen,Arabia-S,14.57,44.67,3500,Volcanic field,Historical
Diable. Morne Au,Dominica,W Indies,15.62,-61.45,861,Stratovolcano,Fumarolic
Diablotins. Morne,Dominica,W Indies,15.5,-61.42,1430,Stratovolcano,Holocene
Diamond Craters,United States,US-Oregon,43.1,-118.75,1435,Volcanic field,Holocene
Didicas,Philippines,Luzon-N of,19.08,122.2,244,Compound volcano,Historical
Dieng Volc Complex,Indonesia,Java,-7.2,109.92,2565,Complex volcano,Historical
Diky Greben,Russia,Kamchatka,51.43,157,1070,Lava dome,Radiocarbon
Dofen,Ethiopia,Africa-NE,9.35,40.13,1151,Stratovolcano,Holocene
Doma Peaks,Papua New Guinea,New Guinea,-5.9,143.15,3568,Stratovolcano,Holocene
Domuyo,Argentina,Argentina,-36.63,-70.42,4709,Stratovolcano,Holocene
Don Joao de Castro Bank,Portugal,Azores,38.23,-26.63,-14,Submarine volcano,Historical
Dona Juana,Colombia,Colombia,1.47,-76.92,4150,Stratovolcano,Historical
Dotsero,United States,US-Colorado,39.65,-107.03,2230,Maar,Radiocarbon
Douglas,United States,Alaska Peninsula,58.87,-153.55,2140,Stratovolcano,Fumarolic
Doyo Seamount,Japan,Izu Is-Japan,27.68,140.8,-860,Submarine volcano,Fumarolic
Dubbi,Eritrea,Africa-NE,13.58,41.81,1625,Stratovolcano,Historical
Dukono,Indonesia,Halmahera-Indonesia,1.68,127.88,1185,Complex volcano,Historical
Duncan Canal,United States,Alaska-SE,56.5,-133.1,15,Unknown,Holocene
Durango Volc Field,Mexico,Mexico,24.15,-104.45,2075,Cinder cone,Holocene
Dutton,United States,Alaska Peninsula,55.18,-162.27,1506,Stratovolcano,Holocene
Dzenzursky,Russia,Kamchatka,53.64,158.92,2155,Compound volcano,Holocene
E-san,Japan,Hokkaido-Japan,41.8,141.17,618,Stratovolcano,Historical
Eagle Lake Field,United States,US-California,40.63,-120.83,1652,Fissure vent,Holocene
Easter Island,Chile,Chile-Is,-27.15,-109.38,511,Shield volcanoes,Holocene
Eastern Gemini Seamount,Pacific Ocean,SW Pacific,-20.98,170.28,-80,Submarine volcano,Historical
Ebeko,Russia,Kuril Is,50.68,156.02,1156,Somma volcano,Historical
Ebulobo,Indonesia,Lesser Sunda Is,-8.81,121.18,2124,Stratovolcano,Historical
Eburru. Ol Doinyo,Kenya,Africa-E,-0.63,36.23,2856,Complex volcano,Holocene
Ecuador. Volcan,Ecuador,Galapagos,-0.02,-91.55,790,Shield volcano,Holocene
Edgecumbe,United States,Alaska-SE,57.05,-135.75,976,Stratovolcano,Radiocarbon
Edziza,Canada,Canada,57.72,-130.63,2786,Stratovolcano,Radiocarbon
Eggella,Russia,Kamchatka,56.57,158.52,1046,Shield volcano,Holocene
Egmont,New Zealand,New Zealand,-39.3,174.07,2518,Stratovolcano,Radiocarbon
Egon,Indonesia,Lesser Sunda Is,-8.67,122.45,1703,Stratovolcano,Historical
Ekarma,Russia,Kuril Is,48.96,153.93,1170,Stratovolcano,Historical
Elbrus,Russia,Russia-SW,43.33,42.45,5633,Stratovolcano,Tephrochronology
Elmenteita Badlands,Kenya,Africa-E,-0.52,36.27,2126,Pyroclastic cone,Holocene
Elovsky,Russia,Kamchatka,57.53,160.53,1381,Shield volcano,Holocene
Emmons Lake,United States,Alaska Peninsula,55.33,-162.07,1465,Caldera,Holocene
Emperor of China,Pacific Ocean,Banda Sea,-6.62,124.22,-2850,Submarine volcano,Uncertain
Emuruangogolak,Kenya,Africa-E,1.5,36.33,1328,Shield volcano,Radiocarbon
Endeavour Ridge,Pacific Ocean,Pacific-NE,47.95,-129.1,-2400,Submarine volcano,Historical
Epi,Vanuatu,Vanuatu-SW Pacific,-16.68,168.37,833,Stratovolcano,Historical
Erciyes Dagi,Turkey,Turkey,38.52,35.48,3916,Stratovolcano,Holocene
Erebus,Antarctica,Antarctica,-77.53,167.17,3794,Stratovolcano,Historical
Erta Ale,Ethiopia,Africa-NE,13.6,40.67,613,Shield volcano,Historical
Es Safa,Syria,Syria,33.08,37.15,979,Volcanic field,Historical
Escanaba Segment,Pacific Ocean,Pacific-NE,40.98,-127.5,-1700,Submarine volcano,Uranium-series
Escorial. Cerro,Argentina,Chile-N,-25.08,-68.37,5447,Stratovolcano,Holocene
Esjufjoll,Iceland,Iceland-SE,64.27,-16.65,1760,Stratovolcano,Historical
Esmeralda Bank,United States,Mariana Is-C Pacific,15,145.25,-43,Submarine volcano,Fumarolic
Espenberg,United States,Alaska-W,66.35,-164.33,243,Volcanic field,Tephrochronology
Est. Ile de l',French Southern & Antarctic Lands,Indian O-S,-46.43,52.2,1090,Stratovolcano,Holocene
Esteli,Nicaragua,Nicaragua,13.17,-86.4,899,Fissure vent,Holocene
Etna,Italy,Italy,37.73,15,3350,Stratovolcano,Historical
Eyjafjallajokull,Iceland,Iceland-S,63.63,-19.62,1666,Stratovolcano,Historical
Falcon Island,Tonga,Tonga-SW Pacific,-20.32,-175.42,-17,Submarine volcano,Historical
Farallon de Pajaros,United States,Mariana Is-C Pacific,20.53,144.9,360,Stratovolcano,Historical
Fayal,Portugal,Azores,38.6,-28.73,1043,Stratovolcano,Historical
Fedotych,Russia,Kamchatka,57.13,160.4,965,Shield volcano,Holocene
Fentale,Ethiopia,Africa-NE,8.98,39.93,2007,Stratovolcano,Historical
Fernandina,Ecuador,Galapagos,-0.37,-91.55,1495,Shield volcano,Historical
Firura. Nevados,Peru,Peru,-15.23,-72.63,5498,Stratovolcano,Holocene
Fisher,United States,Aleutian Is,54.67,-164.35,1094,Stratovolcano,Historical
Flores,Portugal,Azores,39.4,-31.17,915,Stratovolcano,Radiocarbon
Flores,Guatemala,Guatemala,14.3,-90,1600,Volcanic field,Holocene
Fogo,Cape Verde,Cape Verde Is,14.95,-24.35,2829,Stratovolcano,Historical
Fonualei,Tonga,Tonga-SW Pacific,-18.02,-174.33,200,Stratovolcano,Historical
Forecast Seamount,United States,Mariana Is-C Pacific,13.4,143.92,,Submarine volcano,Fumarolic
Fort Portal Field,Uganda,Africa-C,0.7,30.25,1524,Tuff cone,Holocene
Fort Selkirk,Canada,Canada,62.93,-137.38,1239,Volcanic field,Holocene
Four Craters Lava Field,United States,US-Oregon,43.36,-120.67,1501,Volcanic field,Holocene
Fournaise. Piton de la,Reunion,Indian O-W,-21.23,55.71,2631,Shield volcano,Historical
Fourpeaked,United States,Alaska Peninsula,58.77,-153.68,2104,Stratovolcano,Uncertain
Fremrinamur,Iceland,Iceland-NE,65.43,-16.65,939,Stratovolcano,Tephrochronology
Frosty,United States,Alaska Peninsula,55.07,-162.82,1920,Stratovolcano,Holocene
Fuego,Guatemala,Guatemala,14.47,-90.88,3763,Stratovolcano,Historical
Fuerteventura,Spain,Canary Is,28.36,-14.02,529,Fissure vent,Holocene
Fuji,Japan,Honshu-Japan,35.35,138.73,3776,Stratovolcano,Historical
Fukue-jima,Japan,Kyushu-Japan,32.65,128.85,317,Shield volcanoes,Tephrochronology
Fukujin,Japan,Volcano Is-Japan,21.93,143.44,-217,Submarine volcano,Historical
Fukutoku-okanoba,Japan,Volcano Is-Japan,24.28,141.52,-14,Submarine volcano,Historical
Furnas,Portugal,Azores,37.77,-25.32,805,Stratovolcano,Historical
Fuss Peak,Russia,Kuril Is,50.27,155.25,1772,Stratovolcano,Historical
Gabillema,Ethiopia,Africa-NE,11.08,41.27,1459,Stratovolcano,Holocene
Gada Ale,Ethiopia,Africa-NE,13.98,40.41,287,Stratovolcano,Holocene
Galapagos Rift,Pacific Ocean,Pacific-E,0.79,-86.15,-2430,Submarine volcano,Historical
Galapagos Rift,Pacific Ocean,Pacific-E,0.79,-86.15,-2430,Submarine volcano,Historical
Galeras,Colombia,Colombia,1.22,-77.37,4276,Complex volcano,Historical
Gallego,Solomon Is.,Solomon Is-SW Pacifi,-9.35,159.73,1000,Volcanic field,Holocene
Galunggung,Indonesia,Java,-7.25,108.05,2168,Stratovolcano,Historical
Gamalama,Indonesia,Halmahera-Indonesia,0.8,127.33,1715,Stratovolcano,Historical
Gamchen,Russia,Kamchatka,54.97,160.7,2576,Complex volcano,Holocene
Gamkonora,Indonesia,Halmahera-Indonesia,1.38,127.52,1635,Stratovolcano,Historical
Garbuna Group,Papua New Guinea,New Britain-SW Pac,-5.45,150.03,564,Stratovolcano,Holocene
Gareloi,United States,Aleutian Is,51.78,-178.8,1573,Stratovolcano,Historical
Garibaldi Lake,Canada,Canada,49.92,-123.03,2316,Volcanic field,Holocene
Garibaldi. Mt.,Canada,Canada,49.85,-123,2678,Stratovolcano,Radiocarbon
Garove,Papua New Guinea,New Britain-SW Pac,-4.69,149.5,368,Stratovolcano,Holocene
Garua Harbour,Papua New Guinea,New Britain-SW Pac,-5.27,150.09,565,Volcanic field,Holocene
Gaua,Vanuatu,Vanuatu-SW Pacific,-14.27,167.5,797,Stratovolcano,Historical
Gedamsa Caldera,Ethiopia,Africa-NE,8.35,39.18,1984,Caldera,Holocene
Gede,Indonesia,Java,-6.78,106.98,2958,Stratovolcano,Historical
Genovesa,Ecuador,Galapagos,0.32,-89.96,64,Shield volcano,Holocene
Geodesistoy,Russia,Kamchatka,56.33,158.67,1170,Shield volcano,Holocene
Giggenbach,New Zealand,Kermadec Is,-30.04,-178.71,-65,Submarine volcano,Fumarolic
Girekol,Turkey,Turkey,39.17,43.33,0,Unknown,Holocene
Glacier Peak,United States,US-Washington,48.11,-121.11,3213,Stratovolcano,Tephrochronology
Gloria. La,Mexico,Mexico,19.33,-97.25,3500,Volcanic field,Holocene
Golden Trout Creek,United States,US-California,36.36,-118.32,2886,Volcanic field,Tephrochronology
Golets-Tornyi Group,Russia,Kuril Is,45.25,148.35,442,Pyroclastic cone,Holocene
Gollu Dag,Turkey,Turkey,38.25,34.57,2143,Lava dome,Holocene
Golovnin,Russia,Kuril Is,43.85,145.53,541,Caldera,Historical
Goodenough,Papua New Guinea,D'Entrecasteaux Is,-9.48,150.35,220,Volcanic field,Holocene
Gordon,United States,Alaska-E,62.13,-143.08,2755,Cinder cone,Holocene
Gorely,Russia,Kamchatka,52.56,158.03,1829,Caldera,Historical
Goriaschaia Sopka,Russia,Kuril Is,46.83,151.75,891,Stratovolcano,Historical
Gorny Institute,Russia,Kamchatka,57.33,160.2,2125,Stratovolcano,Holocene
Graciosa,Portugal,Azores,39.02,-27.97,402,Stratovolcano,Holocene
Gran Canaria,Spain,Canary Is,28,-15.58,1950,Fissure vent,Radiocarbon
Great Sitkin,United States,Aleutian Is,52.08,-176.13,1740,Stratovolcano,Historical
Griggs,United States,Alaska Peninsula,58.35,-155.1,2317,Stratovolcano,Holocene
Grille. La,Comoros,Indian O-W,-11.47,43.33,1087,Shield volcano,Holocene
Grimsnes,Iceland,Iceland-SW,64.03,-20.87,214,Crater rows,Tephrochronology
Grimsvotn,Iceland,Iceland-NE,64.42,-17.33,1725,Caldera,Historical
Groppo,Ethiopia,Africa-NE,11.73,40.25,930,Stratovolcano,Holocene
Grozny Group,Russia,Kuril Is,45.02,147.87,1211,Complex volcano,Historical
Guadalupe,Mexico,Mexico,29.07,-118.28,1100,Shield volcano,Holocene
Guagua Pichincha,Ecuador,Ecuador,-0.17,-78.6,4784,Stratovolcano,Historical
Guallatiri,Chile,Chile-N,-18.42,-69.17,6071,Stratovolcano,Historical
Guayaques,Bolivia,Chile-N,-22.88,-67.58,5598,Lava dome,Holocene
Guazapa,El Salvador,El Salvador,13.9,-89.12,1438,Stratovolcano,Holocene
Gufa,Eritrea,Africa-NE,12.55,42.53,600,Volcanic field,Holocene
Guguan,United States,Mariana Is-C Pacific,17.32,145.85,287,Stratovolcano,Historical
Guntur,Indonesia,Java,-7.13,107.83,2249,Complex volcano,Historical
Gunungapi Wetar,Pacific Ocean,Banda Sea,-6.64,126.65,282,Stratovolcano,Historical
Hachijo-jima,Japan,Izu Is-Japan,33.13,139.77,854,Stratovolcano,Historical
Hachimantai,Japan,Honshu-Japan,39.95,140.85,1614,Stratovolcano,Holocene
Hainan Dao,China,SE Asia,19.7,110.1,,Pyroclastic cones,Historical
Hakkoda Group,Japan,Honshu-Japan,40.65,140.88,1585,Stratovolcano,Holocene
Hakone,Japan,Honshu-Japan,35.22,139.02,1438,Complex volcano,Radiocarbon
Haku-san,Japan,Honshu-Japan,36.15,136.78,2702,Stratovolcano,Historical
Haleakala,United States,Hawaiian Is,20.71,-156.25,3055,Shield volcano,Historical
Halla,South Korea,Korea,33.37,126.53,1950,Shield volcano,Historical
Hanish,Yemen,Red Sea,13.72,42.73,422,Shield volcano,Holocene
Hargy,Papua New Guinea,New Britain-SW Pac,-5.33,151.1,1148,Stratovolcano,Radiocarbon
Harrah. Al,Saudi Arabia,Arabia-W,31.08,38.42,1100,Volcanic field,Holocene
Haruj,Libya,Africa-N,27.25,17.5,1200,Scoria cone,Holocene
Haruna,Japan,Honshu-Japan,36.47,138.88,1449,Stratovolcano,Anthropology
Hasan Dagi,Turkey,Turkey,38.13,34.17,3253,Stratovolcano,Holocene
Haut Dong Nai,Vietnam,SE Asia,11.6,108.2,1000,Volcanic field,Holocene
Hayes,United States,Alaska-SW,61.62,-152.48,2788,Stratovolcano,Radiocarbon
Haylan. Jabal,Yemen,Arabia-S,15.43,44.78,1550,Volcanic field,Anthropology
Hayli Gubbi,Ethiopia,Africa-NE,13.5,40.72,521,Shield volcano,Holocene
Healy,New Zealand,New Zealand,-35,178.97,980,Submarine volcano,Radiocarbon
Heard,Heard I. & McDonald Is.,Indian O-S,-53.11,73.51,2745,Stratovolcano,Historical
Heart Peaks,Canada,Canada,58.6,-131.97,2012,Shield volcano,Holocene
Hekla,Iceland,Iceland-S,63.98,-19.7,1491,Stratovolcano,Historical
Hell's Half Acre,United States,US-Idaho,43.5,-112.45,1631,Shield volcano,Radiocarbon
Hengill,Iceland,Iceland-SW,64.18,-21.33,803,Crater rows,Radiocarbon
Herbert,United States,Aleutian Is,52.75,-170.12,1290,Stratovolcano,Holocene
Hertali,Ethiopia,Africa-NE,9.78,40.33,900,Fissure vent,Holocene
Hierro,Spain,Canary Is,27.73,-18.03,1500,Shield volcano,Historical
Hijiori,Japan,Honshu-Japan,38.6,140.18,516,Caldera,Radiocarbon
Hiri,Indonesia,Halmahera-Indonesia,0.88,127.32,630,Stratovolcano,Holocene
Hiuchi,Japan,Honshu-Japan,36.95,139.28,2346,Stratovolcano,Historical
Hobicha Caldera,Ethiopia,Africa-NE,6.78,37.83,1800,Caldera,Holocene
Hodson,Antarctica,Antarctica,-56.7,-27.15,1005,Stratovolcano,Holocene
Hofsjokull,Iceland,Iceland-SW,64.78,-18.92,1782,Subglacial volcano,Holocene
Homa Mountain,Kenya,Africa-E,-0.38,34.5,1751,Complex volcano,Holocene
Home Reef,Tonga,Tonga-SW Pacific,-18.99,-174.78,-2,Submarine volcano,Historical
Honggeertu,China,China-E,41.47,113,1700,Cinder cone,Holocene
Hood,United States,US-Oregon,45.37,-121.69,3426,Stratovolcano,Historical
Hoodoo Mountain,Canada,Canada,56.78,-131.28,1820,Subglacial volcano,Holocene
Hornopiren,Chile,Chile-S,-41.87,-72.43,1572,Stratovolcano,Holocene
Hromundartindur,Iceland,Iceland-S,64.07,-21.2,540,Stratovolcano,Holocene?
Hualalai,United States,Hawaiian Is,19.69,-155.87,2523,Shield volcano,Historical
Huanquihue Group,Argentina,Argentina,-39.87,-71.55,1300,Pyroclastic cone,Holocene
Huaynaputina,Peru,Peru,-16.61,-70.85,4850,Stratovolcano,Historical
Hudson Mountains,Antarctica,Antarctica,-74.33,-99.42,749,Stratovolcano,Uncertain
Hudson. Cerro,Chile,Chile-S,-45.9,-72.97,1905,Stratovolcano,Historical
Huequi,Chile,Chile-S,-42.38,-72.58,1318,Stratovolcano,Historical
Huila,Colombia,Colombia,2.92,-76.05,5365,Stratovolcano,Historical
Hulubelu,Indonesia,Sumatra,-5.35,104.6,1040,Caldera,Fumarolic
Humeros. Los,Mexico,Mexico,19.68,-97.45,3150,Caldera,Holocene
Hunga Tonga-Hunga Ha'apai,Tonga,Tonga-SW Pacific,-20.57,-175.38,0,Submarine volcano,Historical
Hunter Island,Pacific Ocean,SW Pacific,-22.4,172.05,297,Stratovolcano,Historical
Hutapanjang,Indonesia,Sumatra,-2.33,101.6,2021,Stratovolcano,Holocene
Hutapanjang,Indonesia,Sumatra,-2.33,101.6,2021,Stratovolcano,Holocene
Hydrographers Range,Papua New Guinea,New Guinea,-9,148.37,1915,Stratovolcano,Holocene
Iamalele,Papua New Guinea,D'Entrecasteaux Is,-9.52,150.53,200,Lava dome,Holocene
Ibu,Indonesia,Halmahera-Indonesia,1.48,127.64,1325,Stratovolcano,Historical
Ibusuki Volc Field,Japan,Kyushu-Japan,31.22,130.57,922,Caldera,Historical
Ichinsky,Russia,Kamchatka,55.68,157.73,3621,Stratovolcano,Holocene
Iettunup,Russia,Kamchatka,58.4,161.08,1340,Shield volcano,Holocene
Igwisi Hills,Tanzania,Africa-E,-4.87,31.92,0,Tuff cone,Holocene
Ijen,Indonesia,Java,-8.06,114.24,2799,Stratovolcano,Historical
Iktunup,Russia,Kamchatka,58.08,160.77,2300,Shield volcano,Holocene
Iliamna,United States,Alaska-SW,60.03,-153.08,3053,Stratovolcano,Historical
Iliboleng,Indonesia,Lesser Sunda Is,-8.34,123.26,1659,Stratovolcano,Historical
Ililabalekan,Indonesia,Lesser Sunda Is,-8.53,123.42,1018,Stratovolcano,Fumarolic
Ilimuda,Indonesia,Lesser Sunda Is,-8.48,122.67,1100,Stratovolcano,Fumarolic
Iliwerung,Indonesia,Lesser Sunda Is,-8.54,123.59,1018,Complex volcano,Historical
Illiniza,Ecuador,Ecuador,-0.66,-78.71,5248,Stratovolcano,Holocene
Ilopango,El Salvador,El Salvador,13.67,-89.05,450,Caldera,Historical
Ilyinsky,Russia,Kamchatka,51.49,157.2,1578,Stratovolcano,Historical
Imun,Indonesia,Sumatra,2.15,98.93,1505,Unknown,Holocene
Imuruk Lake,United States,Alaska-W,65.6,-163.92,610,Shield volcano,Radiocarbon
In Ezzane Volc Field,Algeria,Africa-N,23,10.83,,Volcanic field,Holocene?
Indian Heaven,United States,US-Washington,45.93,-121.82,1513,Shield volcano,Radiocarbon
Ingakslugwat Hills,United States,Alaska-W,61.43,-164.47,190,Cinder cone,Holocene
Inielika,Indonesia,Lesser Sunda Is,-8.73,120.98,1559,Complex volcano,Historical
Inierie,Indonesia,Lesser Sunda Is,-8.88,120.95,2245,Stratovolcano,Fumarolic
Inyo Craters,United States,US-California,37.69,-119.02,2629,Lava dome,Radiocarbon
Ipala Volc Field,Guatemala,Guatemala,14.55,-89.63,1650,Stratovolcano,Holocene
Iraya,Philippines,Luzon-N of,20.47,122.01,1009,Stratovolcano,Historical
Irazu,Costa Rica,Costa Rica,9.98,-83.85,3432,Stratovolcano,Historical
Iriga,Philippines,Luzon-Philippines,13.46,123.46,1196,Stratovolcano,Historical
Iriomote-jima,Japan,Ryukyu Is,24.56,124,-200,Submarine volcano,Historical
Irruputuncu,Bolivia,Chile-N,-20.73,-68.55,5163,Stratovolcano,Historical
Isanotski,United States,Aleutian Is,54.75,-163.73,2446,Stratovolcano,Historical
Isarog,Philippines,Luzon-Philippines,13.66,123.37,1966,Stratovolcano,Holocene
Ischia,Italy,Italy,40.73,13.9,789,Complex volcano,Historical
Iskut-Unuk River Cones,Canada,Canada,56.58,-130.55,1880,Cinder cone,Radiocarbon
Isluga,Chile,Chile-N,-19.15,-68.83,5050,Stratovolcano,Historical
Itasy Volc Field,Madagascar,Madagascar,-19,46.77,1800,Scoria cone,Radiocarbon
Ithnayn. Harrat,Saudi Arabia,Arabia-W,26.58,40.2,1625,Volcanic field,Holocene
Ivao Group,Russia,Kuril Is,45.77,149.68,1426,Cinder cone,Holocene
Iwaki,Japan,Honshu-Japan,40.65,140.3,1625,Stratovolcano,Historical
Iwate,Japan,Honshu-Japan,39.85,141,2041,Complex volcano,Historical
Iwo-Tori-shima,Japan,Ryukyu Is,27.85,128.25,217,Complex volcano,Historical
Iwo-jima,Japan,Volcano Is-Japan,24.75,141.33,161,Caldera,Historical
Ixtepeque,Guatemala,Guatemala,14.42,-89.68,1292,Lava dome,Holocene
Iya,Indonesia,Lesser Sunda Is,-8.88,121.63,637,Stratovolcano,Historical
Iyang-Argapura,Indonesia,Java,-7.97,113.57,3088,Complex volcano,Holocene
Izalco,El Salvador,El Salvador,13.81,-89.63,1950,Stratovolcano,Historical
Iztaccihuatl,Mexico,Mexico,19.18,-98.64,5230,Stratovolcano,Holocene
Izu-Tobu,Japan,Honshu-Japan,34.92,139.12,1406,Pyroclastic cone,Historical
Izumbwe-Mpoli,Tanzania,Africa-E,-8.93,33.4,1568,Pyroclastic cone,Holocene
Jailolo,Indonesia,Halmahera-Indonesia,1.08,127.42,1130,Stratovolcano,Holocene
Jalajala,Philippines,Luzon-Philippines,14.35,121.33,743,Fumarole field,Fumarolic
Jalua,Eritrea,Africa-NE,15.04,39.82,713,Stratovolcano,Holocene
Jan Mayen,Jan Mayen,Atlantic-N-Jan Mayen,71.08,-8.17,2277,Stratovolcano,Historical
Jaraguay Volc Field,Mexico,Mexico,29.33,-114.5,960,Cinder cone,Holocene
Jayu Khota. Laguna,Bolivia,Bolivia,-19.45,-67.42,3650,Maars,Holocene
Jefferson,United States,US-Oregon,44.69,-121.8,3199,Stratovolcano,Varve Count
Jingpohu,China,China-E,44.08,128.83,500,Volcanic field,Radiocarbon
Jocotitlan,Mexico,Mexico,19.73,-99.76,3900,Stratovolcano,Radiocarbon
Jocotitlan,Mexico,Mexico,19.72,-99.76,3900,Stratovolcano,Radiocarbon
Jordan Craters,United States,US-Oregon,43.03,-117.42,1473,Volcanic field,Holocene
Joya. La,Nicaragua,Nicaragua,11.92,-85.98,300,Fissure vent,Holocene
Kaba,Indonesia,Sumatra,-3.52,102.62,1952,Stratovolcano,Historical
Kabargin Oth Group,Georgia,Georgia,42.55,44,3650,Cinder cone,Holocene
Kadovar,Papua New Guinea,New Guinea-NE of,-3.62,144.62,365,Stratovolcano,Holocene
Kagamil,United States,Aleutian Is,52.97,-169.72,893,Stratovolcano,Historical
Kaguyak,United States,Alaska Peninsula,58.62,-154.05,901,Stratovolcano,Holocene
Kaikata Seamount,Japan,Volcano Is-Japan,26.67,141,-162,Submarine volcano,Fumarolic
Kaikohe-Bay of Islands,New Zealand,New Zealand,-35.3,173.9,388,Volcanic field,Radiocarbon
Kaileney,Russia,Kamchatka,57.8,160.67,1582,Shield volcano,Holocene
Kaitoku Seamount,Japan,Volcano Is-Japan,26.12,141.1,-10,Submarine volcano,Historical
Kalatungan,Philippines,Mindanao-Philippines,7.95,124.8,2824,Stratovolcano,Holocene
Kambalny,Russia,Kamchatka,51.3,156.87,2156,Stratovolcano,Holocene
Kamen,Russia,Kamchatka,56.02,160.59,4585,Stratovolcano,Holocene
Kana Keoki,Solomon Is.,Solomon Is-SW Pacifi,-8.75,157.03,-700,Submarine volcano,Holocene
Kanaga,United States,Aleutian Is,51.92,-177.17,1307,Stratovolcano,Historical
Kanlaon,Philippines,Philippines-C,10.41,123.13,2435,Stratovolcano,Historical
Kao,Tonga,Tonga-SW Pacific,-19.67,-175.03,1030,Stratovolcano,Holocene
Karacalidag,Turkey,Turkey,37.67,39.83,1957,Shield volcano,Holocene
Karaha. Kawah,Indonesia,Java,-7.12,108.08,1155,Fumarole field,Fumarolic
Karang,Indonesia,Java,-6.27,106.04,1778,Stratovolcano,Holocene
Karangetang [Api Siau],Indonesia,Sangihe Is-Indonesia,2.78,125.48,1784,Stratovolcano,Historical
Karapinar Field,Turkey,Turkey,37.67,33.65,1302,Cinder cone,Holocene
Karisimbi,Congo. DRC,Africa-C,-1.5,29.45,4507,Stratovolcano,Holocene
Karkar,Papua New Guinea,New Guinea-NE of,-4.65,145.96,1839,Stratovolcano,Historical
Karpinsky Group,Russia,Kuril Is,50.13,155.37,1345,Cone,Historical
Kars Plateau,Turkey,Turkey,40.75,42.9,3000,Volcanic field,Holocene
Karthala,Comoros,Indian O-W,-11.75,43.38,2361,Shield volcano,Historical
Karymsky,Russia,Kamchatka,54.05,159.43,1536,Stratovolcano,Historical
Kasatochi,United States,Aleutian Is,52.18,-175.5,314,Stratovolcano,Historical
Kasbek,Georgia,Georgia,42.7,44.5,5050,Stratovolcano,Tephrochronology
Kasuga,Japan,Volcano Is-Japan,21.77,143.72,-558,Submarine volcano,Uncertain
Katla,Iceland,Iceland-S,63.63,-19.05,1512,Subglacial volcano,Historical
Katmai,United States,Alaska Peninsula,58.27,-154.98,2047,Stratovolcano,Historical
Katunga,Uganda,Africa-C,-0.47,30.18,1707,Tuff cone,Holocene
Katwe-Kikorongo Field,Uganda,Africa-C,-0.08,29.92,1067,Tuff cone,Holocene
Kavachi,Solomon Is.,Solomon Is-SW Pacifi,-9.02,157.95,-20,Submarine volcano,Historical
Kawi-Butak,Indonesia,Java,-7.92,112.45,2651,Stratovolcano,Holocene
Kebeney,Russia,Kamchatka,57.1,159.93,1527,Shield volcano,Holocene
Kekurny,Russia,Kamchatka,56.4,158.85,1377,Shield volcano,Holocene
Kelimutu,Indonesia,Lesser Sunda Is,-8.76,121.83,1640,Complex volcano,Historical
Kell,Russia,Kamchatka,51.65,157.35,900,Stratovolcano,Holocene
Keluo Group,China,China-E,49.37,125.92,670,Pyroclastic cone,Holocene
Kelut,Indonesia,Java,-7.93,112.31,1731,Stratovolcano,Historical
Kendang,Indonesia,Java,-7.23,107.72,2608,Stratovolcano,Holocene
Kerguelen Islands,French Southern & Antarctic Lands,Indian O-S,-49.58,69.5,1840,Stratovolcano,Holocene
Kerinci,Indonesia,Sumatra,-1.81,101.26,3800,Stratovolcano,Historical
Ketoi,Russia,Kuril Is,47.35,152.48,1172,Stratovolcano,Historical
Khangar,Russia,Kamchatka,54.75,157.38,2000,Stratovolcano,Radiocarbon
Khanuy Gol,Mongolia,Mongolia,48.67,102.75,1886,Volcanic field,Holocene
Kharimkotan,Russia,Kuril Is,49.12,154.51,1145,Stratovolcano,Historical
Khaybar. Harrat,Saudi Arabia,Arabia-W,25,39.92,2093,Volcanic field,Historical
Khodutka,Russia,Kamchatka,52.06,157.7,2090,Stratovolcano,Radiocarbon
Kialagvik,United States,Alaska Peninsula,57.38,-156.75,1575,Stratovolcano,Holocene
Kiaraberes-Gagak,Indonesia,Java,-6.73,106.65,1511,Stratovolcano,Historical
Kick-'em-Jenny,Netherlands,W Indies,12.3,-61.63,-177,Submarine volcano,Historical
Kieyo,Tanzania,Africa-E,-9.23,33.78,2175,Stratovolcano,Historical
Kikai,Japan,Ryukyu Is,30.78,130.28,717,Caldera,Historical
Kikhpinych,Russia,Kamchatka,54.49,160.25,1552,Stratovolcano,Radiocarbon
Kilauea,United States,Hawaiian Is,19.43,-155.29,1222,Shield volcano,Historical
Kilimanjaro,Tanzania,Africa-E,-3.07,37.35,5895,Stratovolcano,Holocene
Kinenin,Russia,Kamchatka,57.35,160.97,583,Maar,Radiocarbon
Kirishima,Japan,Kyushu-Japan,31.93,130.87,1700,Shield volcano,Historical
Kishb. Harrat,Saudi Arabia,Arabia-W,22.8,41.38,1475,Volcanic field,Holocene
Kiska,United States,Aleutian Is,52.1,177.6,1220,Stratovolcano,Historical
Kita-Fukutokutai,Japan,Volcano Is-Japan,24.41,141.42,-73,Submarine volcano,Holocene
Kita-Iwo-jima,Japan,Volcano Is-Japan,25.43,141.23,792,Stratovolcano,Historical
Kizimen,Russia,Kamchatka,55.13,160.32,2485,Stratovolcano,Historical
Klabat,Indonesia,Sulawesi-Indonesia,1.47,125.03,1995,Stratovolcano,Fumarolic
Kliuchevskoi,Russia,Kamchatka,56.06,160.64,4835,Stratovolcano,Historical
Kolbeinsey Ridge,Iceland,Iceland-N of,66.67,-18.5,0,Submarine volcano,Historical
Kolkhozhny,Russia,Kamchatka,55.07,160.77,2161,Stratovolcano,Holocene
Kolokol Group,Russia,Kuril Is,46.04,150.05,1328,Somma volcano,Historical
Komaga-take,Japan,Hokkaido-Japan,42.07,140.68,1140,Stratovolcano,Historical
Komarov,Russia,Kamchatka,55.03,160.72,2070,Stratovolcano,Holocene
Kone,Ethiopia,Africa-NE,8.8,39.69,1619,Caldera,Historical
Koniuji,United States,Aleutian Is,52.22,-175.13,272,Stratovolcano,Uncertain
Kookooligit Mountains,United States,Alaska-W,63.6,-170.43,673,Shield volcano,Holocene
Koranga,Papua New Guinea,New Guinea,-7.33,146.71,0,Explosion crater,Holocene
Korath Range,Ethiopia,Africa-NE,5.1,35.88,912,Tuff cone,Holocene
Koro,Fiji,Fiji Is-SW Pacific,-17.32,179.4,522,Cinder cone,Holocene
Korosi,Kenya,Africa-E,0.77,36.12,1446,Shield volcano,Holocene
Koryaksky,Russia,Kamchatka,53.32,158.69,3456,Stratovolcano,Historical
Koshelev,Russia,Kamchatka,51.36,156.75,1812,Stratovolcano,Historical
Koussi. Emi,Chad,Africa-N,19.8,18.53,3415,Stratovolcano,Holocene
Kozu-shima,Japan,Izu Is-Japan,34.22,139.15,574,Lava dome,Historical
Kozyrevsky,Russia,Kamchatka,55.58,158.38,2016,Shield volcano,Holocene
Krafla,Iceland,Iceland-NE,65.73,-16.78,650,Caldera,Historical
Krainy,Russia,Kamchatka,56.37,159.03,1554,Shield volcano,Holocene
Krakagiger,Iceland,Iceland-S,63.98,-19.7,1491,Stratovolcano,Historical
Krakatau,Indonesia,Indonesia,-6.1,105.42,813,Caldera,Historical
Krasheninnikov,Russia,Kamchatka,54.59,160.27,1856,Caldera,Radiocarbon
Kristnitokugigar,Iceland,Iceland-SW,63.98,-21.42,301,Crater rows,Historical
Krisuvik,Iceland,Iceland-SW,63.93,-22.1,379,Crater rows,Historical
Kronotsky,Russia,Kamchatka,54.75,160.53,3528,Stratovolcano,Historical
Ksudach,Russia,Kamchatka,51.8,157.53,1079,Stratovolcano,Historical
Kuchino-shima,Japan,Ryukyu Is,29.96,129.93,628,Stratovolcanoes,Radiocarbon
Kuchino-shima,Japan,Ryukyu Is,29.97,129.93,627,Stratovolcano,Holocene
Kuchinoerabu-jima,Japan,Ryukyu Is,30.43,130.22,649,Stratovolcano,Historical
Kuei-Shan-Tao,Taiwan,Taiwan,24.85,121.92,401,Stratovolcano,Pleistocene-Fumarol
Kuju Group,Japan,Kyushu-Japan,33.08,131.25,1788,Stratovolcano,Historical
Kukak,United States,Alaska Peninsula,58.47,-154.35,2040,Stratovolcano,Fumarolic
Kula,Turkey,Turkey,38.58,28.52,750,Cinder cone,Holocene
Kulkev,Russia,Kamchatka,56.37,158.37,915,Shield volcano,Holocene
Kunlun Volc Group,China,China-W,35.52,80.2,5808,Pyroclastic cone,Historical
Kupreanof,United States,Alaska Peninsula,56.02,-159.8,1895,Stratovolcano,Historical
Kurikoma,Japan,Honshu-Japan,38.95,140.78,1628,Stratovolcano,Historical
Kurile Lake,Russia,Kamchatka,51.45,157.12,104,Caldera,Radiocarbon
Kurose Hole,Japan,Izu Is-Japan,33.4,139.68,-107,Submarine volcano,Holocene?
Kurose Hole,Japan,Izu Is-Japan,33.4,139.68,-107,Submarine volcano,Holocene
Kurub,Ethiopia,Africa-NE,11.88,41.21,625,Shield volcano,Holocene
Kusatsu-Shirane,Japan,Honshu-Japan,36.62,138.55,2176,Stratovolcano,Historical
Kutcharo,Japan,Hokkaido-Japan,43.55,144.43,1000,Caldera,Tephrochronology
Kuttara,Japan,Hokkaido-Japan,42.5,141.18,581,Stratovolcano,Tephrochronology
Kutum Volc Field,Sudan,Africa-N,14.5,25.8,0,Scoria cone,Holocene
Kuwae,Vanuatu,Vanuatu-SW Pacific,-16.83,168.54,-2,Caldera,Historical
Kverkfjoll,Iceland,Iceland-NE,64.65,-16.72,1920,Stratovolcano,Historical
Kyatwa Volc Field,Uganda,Africa-C,0.45,30.25,1430,Tuff cone,Holocene
La Palma,Spain,Canary Is,28.58,-17.83,2426,Stratovolcano,Historical
Lajas. Las,Nicaragua,Nicaragua,12.3,-85.73,926,Shield volcano,Holocene
Lakagigar,Sweden,Iceland-NE,64.42,17.33,1725,Caldera,Historical
Lambafit,Iceland,Iceland-S,64.08,-19.4,550,Crater rows,Historical
Lamington,Papua New Guinea,New Guinea,-8.95,148.15,1680,Stratovolcano,Historical
Lamongan,Indonesia,Java,-8,113.34,1651,Stratovolcano,Historical
Langila,Papua New Guinea,New Britain-SW Pac,-5.53,148.42,1330,Complex volcano,Historical
Langjokull,Iceland,Iceland-SW,64.75,-19.98,1360,Stratovolcano,Radiocarbon
Lanin,Argentina,Chile-C,-39.63,-71.5,3747,Stratovolcano,Holocene
Lanzarote,Spain,Canary Is,29.03,-13.63,670,Fissure vent,Historical
Lascar,Chile,Chile-N,-23.37,-67.73,5592,Stratovolcano,Historical
Lassen Volc Center,United States,US-California,40.49,-121.51,3187,Stratovolcano,Historical
Lastarria,Chile,Chile-N,-25.17,-68.5,5697,Stratovolcano,Holocene
Late,Tonga,Tonga-SW Pacific,-18.81,-174.65,518,Stratovolcano,Historical
Latukan,Philippines,Mindanao-Philippines,7.65,124.47,2158,Stratovolcano,Holocene
Lautaro,Chile,Chile-S,-49.02,-73.55,3380,Stratovolcano,Historical
Lavic Lake,United States,US-California,34.75,-116.63,1495,Volcanic field,Holocene
Lawu,Indonesia,Java,-7.63,111.19,3265,Stratovolcano,Holocene
Leizhou Bandao,China,SE Asia,20.83,109.78,259,Volcanic field,Holocene
Lengai. Ol Doinyo,Tanzania,Africa-E,-2.75,35.9,2890,Stratovolcano,Historical
Leonard Range,Philippines,Mindanao-Philippines,7.39,126.4,1190,Stratovolcano,Holocene
Leroboleng,Indonesia,Lesser Sunda Is,-8.36,122.84,1117,Complex volcano,Historical
Leskov Island,Antarctica,Antarctica,-56.67,-28.13,190,Stratovolcano,Fumarolic
Leutongey,Russia,Kamchatka,57.3,159.83,1333,Shield volcano,Holocene
Level Mountain,Canada,Canada,58.42,-131.35,2190,Shield volcano,Holocene
Lewotobi,Indonesia,Lesser Sunda Is,-8.53,122.78,1703,Stratovolcano,Historical
Lewotobi Perempuan,Indonesia,Lesser Sunda Is,-8.58,122.78,1703,Stratovolcano,Historical
Lewotolo,Indonesia,Lesser Sunda Is,-8.27,123.51,1423,Stratovolcano,Historical
Lexone,Chile,Chile-N,-17.87,-69.48,5340,Lava dome,Holocene
Liado Hayk Field,Ethiopia,Africa-NE,9.57,40.28,878,Maar,Holocene
Liamuiga,St. Kitts & Nevis,W Indies,17.37,-62.8,1156,Stratovolcano,Radiocarbon
Licancabur,Chile,Chile-N,-22.83,-67.88,5916,Stratovolcano,Holocene
Lihir,Papua New Guinea,New Ireland-SW Pacif,-3.13,152.64,700,Volcanic complex,Holocene
Lindenberg Island,Antarctica,Antarctica,-65.03,-60.05,368,Pyroclastic cone,Uncertain
Lipari,Italy,Italy,38.48,14.95,602,Stratovolcanoes,Radiocarbon
Lipari,Italy,Italy,38.48,14.95,602,Stratovolcano,Historical
Little Sitkin,United States,Aleutian Is,51.95,178.53,1188,Stratovolcano,Historical
Ljosufjoll,Iceland,Iceland-W,64.87,-22.23,988,Fissure vent,Anthropology
Llaima,Chile,Chile-C,-38.69,-71.73,3125,Stratovolcano,Historical
Llullaillaco,Argentina,Chile-N,-24.72,-68.53,6739,Stratovolcano,Historical
Loihi,United States,Hawaiian Is,18.92,-155.27,-975,Submarine volcano,Historical
Lokon-Empung,Indonesia,Sulawesi-Indonesia,1.36,124.79,1580,Stratovolcano,Historical
Lolo,Papua New Guinea,New Britain-SW Pac,-5.47,150.5,805,Stratovolcano,Holocene
Lolobau,Papua New Guinea,New Britain-SW Pac,-4.92,151.16,858,Caldera,Historical
Loloru,Papua New Guinea,Bougainville-SW Paci,-6.52,155.62,1887,Pyroclastic shield,Radiocarbon
Lomonosov Group,Russia,Kuril Is,50.25,155.43,1681,Cinder cone,Holocene
Long Island,Papua New Guinea,New Guinea-NE of,-5.36,147.12,1280,Complex volcano,Historical
Longavi. Nevado de,Chile,Chile-C,-36.19,-71.16,3242,Stratovolcano,Holocene
Longgang Group,China,China-E,42.33,126.5,1000,Cinder cone,Radiocarbon
Longonot,Kenya,Africa-E,-0.92,36.45,2776,Stratovolcano,Anthropology
Lonquimay,Chile,Chile-C,-38.38,-71.58,2865,Stratovolcano,Historical
Lopevi,Vanuatu,Vanuatu-SW Pacific,-16.51,168.35,1413,Stratovolcano,Historical
Lower Chindwin,Myanmar,SE Asia,22.28,95.1,385,Volcanic field,Holocene
Lubukraya,Indonesia,Sumatra,1.48,99.21,1862,Stratovolcano,Holocene
Lumut Balai. Bukit,Indonesia,Sumatra,-4.22,103.62,2055,Stratovolcano,Fumarolic
Lunayyir. Harrat,Saudi Arabia,Arabia-W,25.17,37.75,1370,Volcanic field,Historical
Lurus,Indonesia,Java,-7.7,113.58,539,Complex volcano,Holocene
Lvinaya Past,Russia,Kuril Is,44.62,147,528,Stratovolcano,Radiocarbon
Lysuholl,Iceland,Iceland-W,64.87,-23.25,540,Pyroclastic cone,Holocene
Ma Alalta,Ethiopia,Africa-NE,13.02,40.2,1815,Stratovolcano,Holocene
Maca,Chile,Chile-S,-45.1,-73.2,2960,Stratovolcano,Holocene
Macauley Island,New Zealand,Kermadec Is,-30.2,-178.47,238,Caldera,Holocene
Macdonald,Antarctica,Austral Is-C Pacific,-28.98,-140.25,-50,Submarine volcano,Historical
Machin. Cerro,Colombia,Colombia,4.48,-75.4,2650,Stratovolcano,Radiocarbon
Madeira,Portugal,Azores,32.73,-16.97,1862,Shield volcano,Radiocarbon
Maderas,Nicaragua,Nicaragua,11.45,-85.52,1394,Stratovolcano,Holocene
Madilogo,Papua New Guinea,New Guinea,-9.2,147.57,850,Pyroclastic cone,Holocene
Magaso,Philippines,Philippines-C,9.26,123.18,1904,Stratovolcano,Holocene
Mageik,United States,Alaska Peninsula,58.2,-155.25,2165,Stratovolcano,Historical
Mahagnoa,Philippines,Philippines-C,10.87,124.85,800,Stratovolcano,Fumarolic
Mahawu,Indonesia,Sulawesi-Indonesia,1.36,124.86,1324,Stratovolcano,Historical
Maipo,Argentina,Chile-C,-34.16,-69.83,5264,Caldera,Historical
Makaturing,Philippines,Mindanao-Philippines,7.65,124.32,1940,Stratovolcano,Holocene
Makian,Indonesia,Halmahera-Indonesia,0.32,127.4,1357,Stratovolcano,Historical
Makushin,United States,Aleutian Is,53.9,-166.93,2036,Stratovolcano,Historical
Malabar,Indonesia,Java,-7.13,107.65,2343,Stratovolcano,Holocene
Malang Plain,Indonesia,Java,-8.02,112.68,680,Maar,Holocene
Malinao,Philippines,Luzon-Philippines,13.42,123.6,1548,Stratovolcano,Fumarolic
Malinche. La,Mexico,Mexico,19.23,-98.03,4503,Stratovolcano,Radiocarbon
Malindang,Philippines,Mindanao-Philippines,8.22,123.63,2435,Stratovolcano,Holocene
Malindig,Philippines,Luzon-Philippines,13.24,122.02,1157,Stratovolcano,Hot Springs
Malintang,Indonesia,Sumatra,0.47,99.67,1983,Stratovolcano,Holocene
Mallahle,Ethiopia,Africa-NE,13.27,41.65,1875,Stratovolcano,Holocene
Maly Payalpan,Russia,Kamchatka,55.82,157.98,1802,Shield volcano,Holocene
Maly Semiachik,Russia,Kamchatka,54.13,159.67,1560,Caldera,Historical
Managlase Plateau,Papua New Guinea,New Guinea,-9.08,148.33,1342,Volcanic field,Anthropology
Manam,Papua New Guinea,New Guinea-NE of,-4.1,145.06,1807,Stratovolcano,Historical
Manareyjar,Iceland,Iceland-N,66.3,-17.1,0,Submarine volcano,Historical
Manda Gargori,Ethiopia,Ethiopia,11.75,41.48,,Fissure vents,Anthropology
Manda Hararo,Ethiopia,Africa-NE,12.17,40.82,600,Shield volcano,Holocene
Manda-Inakir,Ethiopia,Africa-NE,12.38,42.2,600,Fissure vent,Historical
Mandalagan,Philippines,Philippines-C,10.62,123.22,1879,Stratovolcano,Holocene
Manengouba,Cameroon,Africa-W,5.03,9.83,2411,Stratovolcano,Holocene
Manuk,Pacific Ocean,Banda Sea,-5.53,130.29,282,Stratovolcano,Fumarolic
Manzaz Volc Field,Algeria,Africa-N,23.92,5.83,1672,Scoria cones,Holocene
Maquiling,Philippines,Luzon-Philippines,14.13,121.2,1090,Stratovolcano,Holocene
Marapi,Indonesia,Sumatra,-0.38,100.47,2891,Complex volcano,Historical
Marchena,Ecuador,Galapagos,0.33,-90.47,343,Shield volcano,Historical
Mare,Indonesia,Halmahera-Indonesia,0.57,127.4,308,Unknown,Holocene
Marha. Jabal el-,Yemen,Arabia-S,15.28,44.22,2650,Tuff cone,Holocene
Marion Island,South Africa,Indian O-S,-46.9,37.75,1230,Shield volcano,Historical
Mariveles,Philippines,Luzon-Philippines,14.5,120.5,1420,Stratovolcano,Radiocarbon
Markagunt Plateau,United States,US-Utah,37.58,-112.67,2840,Volcanic field,Dendrochronology
Maroa,New Zealand,New Zealand,-38.42,176.08,1156,Caldera,Tephrochronology
Marra. Jebel,Sudan,Africa-N,12.95,24.27,3042,Volcanic field,Radiocarbon
Marsabit,Kenya,Africa-E,2.32,37.97,1707,Shield volcano,Holocene
Martin,United States,Alaska Peninsula,58.17,-155.35,1860,Stratovolcano,Historical
Masaraga,Philippines,Luzon-Philippines,13.32,123.6,1328,Stratovolcano,Holocene
Masaya,Nicaragua,Nicaragua,11.98,-86.16,635,Caldera,Historical
Mascota Volc Field,Mexico,Mexico,20.62,-104.83,2540,Shield volcano,Holocene
Mashkovtsev,Russia,Kamchatka,51.1,156.72,503,Stratovolcano,Holocene
Mashu,Japan,Hokkaido-Japan,43.57,144.57,855,Caldera,Radiocarbon
Mat Ala,Ethiopia,Africa-NE,13.1,41.15,523,Shield volcano,Holocene
Matthew Island,Pacific Ocean,SW Pacific,-22.33,171.32,177,Stratovolcano,Historical
Matutum,Philippines,Mindanao-Philippines,6.37,125.11,2293,Stratovolcano,Holocene
Maug Islands,United States,Mariana Is-C Pacific,20.02,145.22,227,Stratovolcano,Fumarolic
Maule. Laguna del,Chile,Chile-C,-36.02,-70.58,3092,Stratovolcano,Holocene
Mauna Kea,United States,Hawaiian Is,19.82,-155.47,4206,Shield volcano,Radiocarbon
Mauna Loa,United States,Hawaiian Is,19.48,-155.61,4170,Shield volcano,Historical
May-ya-moto,Congo. DRC,Africa-C,-0.93,29.33,950,Fumarole field,Fumarolic
Mayon,Philippines,Luzon-Philippines,13.26,123.69,2462,Stratovolcano,Historical
Mayor Island,New Zealand,New Zealand,-37.28,176.25,355,Shield volcano,Radiocarbon
McDonald Islands,Indian Ocean,Indian O-S,-53.03,72.6,186,Complex volcano,Historical
Meager,Canada,Canada,50.63,-123.5,2680,Complex volcano,Radiocarbon
Medicine Lake,United States,US-California,41.58,-121.57,2412,Shield volcano,Radiocarbon
Medvezhia,Russia,Kuril Is,45.38,148.83,1124,Somma volcano,Historical
Mega Basalt Field,Kenya,Africa-E,4.08,37.42,1067,Pyroclastic cone,Holocene
Megata,Japan,Honshu-Japan,39.95,139.73,291,Maar,Tephrochronology
Mehetia,France,Society Is-C Pacific,-17.87,-148.07,435,Stratovolcano,Anthropology
Meidob Volc Field,Sudan,Africa-N,15.32,26.47,2000,Scoria cone,Holocene
Melbourne,Antarctica,Antarctica,-74.35,164.7,2732,Stratovolcano,Tephrochronology
Melimoyu,Chile,Chile-S,-44.08,-72.88,2400,Stratovolcano,Holocene
Mendeleev,Russia,Kuril Is,43.98,145.7,887,Stratovolcano,Historical
Menengai,Kenya,Africa-E,-0.2,36.07,2278,Shield volcano,Tephrochronology
Mentolat,Chile,Chile-S,-44.67,-73.08,1660,Stratovolcano,Holocene
Merapi,Indonesia,Java,-7.54,110.44,2947,Stratovolcano,Historical
Merbabu,Indonesia,Java,-7.45,110.43,3145,Stratovolcano,Historical
Mere Lava,Vanuatu,Vanuatu-SW Pacific,-14.45,168.05,1028,Stratovolcano,Holocene
Meru,Tanzania,Africa-E,-3.25,36.75,4565,Stratovolcano,Historical
Methana,Greece,Greece,37.62,23.34,760,Lava dome,Historical
Metis Shoal,Tonga,Tonga-SW Pacific,-19.18,-174.87,43,Submarine volcano,Historical
Mezhdusopochny,Russia,Kamchatka,57.47,160.25,1641,Shield volcano,Holocene
Michael,Antarctica,Antarctica,-57.78,-26.45,990,Stratovolcano,Historical
Michoacan-Guanajuato,Mexico,Mexico,19.48,-102.25,3860,Cinder cone,Historical
Micotrin,Dominica,W Indies,15.33,-61.33,1387,Lava dome,Historical
Middle Gobi,Mongolia,Mongolia,45.28,106.7,1120,Cinder cone,Holocene
Milbanke Sound Group,Canada,Canada,52.5,-128.73,335,Cinder cone,Holocene
Milne,Russia,Kuril Is,46.82,151.78,1540,Somma volcano,Holocene
Milos,Greece,Greece,36.7,24.44,751,Stratovolcano,Holocene
Minami-Hiyoshi,Japan,Volcano Is-Japan,23.51,141.91,-30,Submarine volcano,Historical
Minchinmavida,Chile,Chile-S,-42.78,-72.43,2404,Stratovolcano,Historical
Miravalles,Costa Rica,Costa Rica,10.75,-85.15,2028,Stratovolcano,Historical
Misti. El,Peru,Peru,-16.29,-71.41,5822,Stratovolcano,Historical
Miyake-jima,Japan,Izu Is-Japan,34.08,139.53,815,Stratovolcano,Historical
Mocho-Choshuenco,Chile,Chile-C,-39.93,-72.03,2422,Stratovolcano,Historical
Moffett,United States,Aleutian Is,51.93,-176.75,1196,Stratovolcano,Holocene
Mojanda,Ecuador,Ecuador,0.13,-78.27,4263,Stratovolcanoes,Holocene?
Mojanda,Ecuador,Ecuador,0.13,-78.27,4263,Stratovolcano,Holocene
Mokuyo Seamount,Japan,Izu Is-Japan,28.32,140.57,-920,Submarine volcano,Fumarolic
Mombacho,Nicaragua,Nicaragua,11.83,-85.97,1344,Stratovolcano,Holocene
Momotombo,Nicaragua,Nicaragua,12.42,-86.54,1297,Stratovolcano,Historical
Monaco Bank,Portugal,Azores,37.6,-25.88,-197,Submarine volcano,Historical
Mondaca,Chile,Chile-C,-35.46,-70.8,2048,Lava dome,Holocene
Mono Craters,United States,US-California,37.88,-119,2796,Lava dome,Radiocarbon
Mono Lake Volc Field,United States,US-California,38,-119.03,2121,Cinder cone,Tephrochronology
Monowai Seamount,New Zealand,Kermadec Is,-25.89,-177.19,-100,Submarine volcano,Historical
Montagu Island,Antarctica,Antarctica,-58.42,-26.33,1370,Shield volcano,Historical
Morning. Mt.,Antarctica,Antarctica,-78.5,163.53,2723,Shield volcano,Holocene
Moti,Indonesia,Halmahera-Indonesia,0.45,127.4,950,Stratovolcano,Holocene
Motlav,Vanuatu,Vanuatu-SW Pacific,-13.67,167.67,411,Stratovolcano,Holocene
Moua Pihaa,France,Society Is-C Pacific,-18.32,-148.67,-180,Submarine volcano,Seismicity
Mousa Alli,Djibouti,Africa-NE,12.47,42.4,2028,Stratovolcano,Holocene
Moyuta,Guatemala,Guatemala,14.03,-90.1,1662,Stratovolcano,Hot Springs
Muhavura,Uganda,Africa-C,-1.38,29.67,4127,Stratovolcano,Holocene
Mundafell,Iceland,Iceland-S,63.98,-19.7,1491,Stratovolcano,Historical
Mundua,Papua New Guinea,New Britain-SW Pac,-4.63,149.35,179,Complex volcano,Holocene
Muria,Indonesia,Java,-6.62,110.88,1625,Stratovolcano,Holocene
Musa River,Papua New Guinea,New Guinea,-9.31,148.13,808,Hydrothermal field,Hot Springs
Mutnovsky,Russia,Kamchatka,52.45,158.2,2322,Complex volcano,Historical
Myojun Knoll,Japan,Izu Is-Japan,32.1,139.85,360,Submarine volcano,Holocene
Myoko,Japan,Honshu-Japan,36.88,138.12,2446,Stratovolcano,Radiocarbon
NW Rota-1,United States,Mariana Is-C Pacific,14.6,144.78,-517,Submarine volcano,Historical
Nabro,Eritrea,Africa-NE,13.37,41.7,2218,Stratovolcano,Holocene
Nabukelevu,Tonga,Fiji Is-SW Pacific,-19.12,177.98,805,Lava domes,Radiocarbon
Nakano-shima,Japan,Ryukyu Is,29.85,129.87,979,Stratovolcano,Historical
Namarunu,Kenya,Africa-E,1.9,36.27,817,Shield volcano,Tephrochronology
Nantai,Japan,Honshu-Japan,36.77,139.5,2484,Stratovolcano,Holocene
Naolinco Volc Field,Mexico,Mexico,19.67,-96.75,2000,Pyroclastic cone,Holocene
Narcondum,India,Andaman Is-Indian O,13.43,94.25,710,Stratovolcano,Holocene
Narugo,Japan,Honshu-Japan,38.73,140.73,462,Caldera,Historical
Nasu,Japan,Honshu-Japan,37.12,139.97,1917,Stratovolcano,Historical
Natib,Philippines,Luzon-Philippines,14.71,120.4,1287,Stratovolcano,Holocene
Nazko,Canada,Canada,52.9,-123.73,1230,Cinder cone,Radiocarbon
Ndete Napu,Indonesia,Lesser Sunda Is,-8.72,121.78,750,Fumarole field,Fumarolic
Negra. Sierra,Ecuador,Galapagos,-0.83,-91.17,1490,Shield volcano,Historical
Negrillar. El,Chile,Chile-N,-24.18,-68.25,3500,Pyroclastic cone,Holocene
Negrillar. La,Chile,Chile-N,-24.28,-68.6,4109,Pyroclastic cone,Holocene
Negro de Mayasquer. Cerro,Ecuador,Colombia,0.83,-77.96,4445,Stratovolcano,Holocene
Negro. Cerro,Nicaragua,Nicaragua,12.51,-86.7,728,Cinder cone,Historical
Nejapa-Miraflores,Nicaragua,Nicaragua,12.12,-86.32,360,Fissure vent,Holocene
Nemo Peak,Russia,Kuril Is,49.57,154.81,1018,Caldera,Historical
Nemrut Dagi,Turkey,Turkey,38.65,42.02,3050,Stratovolcano,Historical
Nevada. Sierra,Argentina,Chile,-26.48,-68.58,6127,Complex volcano,Holocene
Nevis Peak,Netherlands,W Indies,17.15,-62.58,985,Stratovolcano,Holocene
Newberry Volcano,United States,US-Oregon,43.72,-121.23,2434,Shield volcano,Radiocarbon
Newer Volcanics Prov,Australia,Australia,-37.77,142.5,1011,Shield volcano,Radiocarbon
Ngaoundere Plateau,Cameroon,Africa-W,7.25,13.67,0,Volcanic field,Holocene
Ngauruhoe,New Zealand,New Zealand,-39.16,175.63,2291,Stratovolcano,Historical
Ngozi,Tanzania,Africa-E,-8.97,33.57,2622,Caldera,Holocene
Nicholson. Cerro,Peru,Peru,-16.26,-71.75,2520,Cinder cone,Holocene
Nieuwerkerk,Pacific Ocean,Banda Sea,-6.6,124.68,-2285,Submarine volcano,Uncertain
Nightingale Island,United Kingdom,Atlantic-S,-37.42,-12.48,365,Stratovolcano,Historical
Nii-jima,Japan,Izu Is-Japan,34.37,139.27,432,Lava dome,Historical
Niigata-Yake-yama,Japan,Honshu-Japan,36.92,138.03,2400,Lava dome,Historical
Nikko,Japan,Volcano Is-Japan,23.08,142.31,-391,Submarine volcano,Uncertain
Nikko-Shirane,Japan,Honshu-Japan,36.8,139.38,2578,Shield volcano,Historical
Nila,Pacific Ocean,Banda Sea,-6.73,129.5,781,Stratovolcano,Historical
Nipesotsu-Upepesanke,Japan,Japan,43.45,143.03,2013,Lava dome,Historical
Niseko,Japan,Hokkaido-Japan,42.88,140.63,1154,Stratovolcano,Holocene
Nishino-shima,Japan,Volcano Is-Japan,27.27,140.88,38,Caldera,Historical
Nisyros,Greece,Greece,36.58,27.18,698,Stratovolcano,Historical
Niuafo'ou,Tonga,Tonga-SW Pacific,-15.6,-175.63,260,Shield volcano,Historical
Norikura,Japan,Honshu-Japan,36.12,137.55,3026,Stratovolcano,Radiocarbon
North Gorda Ridge,Pacific Ocean,Pacific-NE,42.67,-126.78,-3000,Submarine volcano,Historical
North Gorda Ridge,Pacific Ocean,Pacific-NE,42.67,-126.78,-3000,Submarine volcano,Historical
North Island,Kenya,Africa-E,4.07,36.05,520,Tuff cone,Holocene
North Sister Field,United States,US-Oregon,44.17,-121.77,3074,Complex volcano,Radiocarbon
North Vate,Vanuatu,Vanuatu-SW Pacific,-17.45,168.33,594,Stratovolcano,Holocene
Northern EPR-Segment RO3,Pacific Ocean,Pacific-E,15.83,-105.43,-2300,Submarine volcano,Magnetism
Nosy-Be,Madagascar,Madagascar,-13.32,48.48,214,Cinder cone,Holocene
Novarupta,United States,Alaska Peninsula,58.27,-155.16,841,Caldera,Historical
Nuevo Mundo,Bolivia,Bolivia,-19.78,-66.48,5438,Lava domes,Holocene?
Numazawa,Japan,Honshu-Japan,37.43,139.58,1100,Shield volcano,Radiocarbon
Nunivak Island,United States,Alaska-W,60.02,-166.33,511,Shield volcano,Holocene
Nyambeni Hills,Kenya,Africa-E,0.23,37.87,750,Shield volcano,Holocene
Nyamuragira,Congo. DRC,Africa-C,-1.41,29.2,3058,Shield volcano,Historical
Nyiragongo,Congo. DRC,Africa-C,-1.52,29.25,3470,Stratovolcano,Historical
Ofu-Olosega,United States,Samoa-SW Pacific,-14.18,-169.62,639,Shield volcano,Historical
Ojos del Salado. Nevados,Argentina,Chile-N,-27.12,-68.53,6887,Stratovolcano,Holocene
Oka Volc Field,Russia,Russia-SE,52.7,98.98,2077,Cinder cone,Holocene
Okataina,New Zealand,New Zealand,-38.12,176.5,1111,Lava dome,Historical
Oki-Dogo,Japan,Honshu-Japan,36.17,133.33,151,Shield volcano,Anthropology
Okmok,United States,Aleutian Is,53.42,-168.13,1073,Shield volcano,Historical
Oku Volc Field,Cameroon,Africa-W,6.25,10.5,3011,Maar,Radiocarbon
Ol Kokwe,Kenya,Africa-E,0.63,36.08,1130,Shield volcano,Holocene
Olca-Paruma,Bolivia,Chile-N,-20.93,-68.48,5407,Stratovolcano,Historical
Olkaria,Kenya,Africa-E,-0.9,36.29,2434,Pumice cone,Radiocarbon
Olkoviy,Russia,Kamchatka,52.08,157.48,636,Shield volcano,Holocene
Ollague,Bolivia,Chile-N,-21.3,-68.18,5868,Stratovolcano,Holocene
Olot Volc Field,Spain,Spain,42.17,2.53,893,Pyroclastic cone,Holocene
Omachi Seamount,Japan,Izu Is-Japan,29.22,140.8,-1700,Submarine volcano,Uncertain
Omanago Group,Japan,Honshu-Japan,36.78,139.5,2367,Lava dome,Holocene
On-take,Japan,Honshu-Japan,35.9,137.48,3063,Complex volcano,Historical
Opala,Russia,Kamchatka,52.54,157.34,2475,Caldera,Radiocarbon
Oraefajokull,Iceland,Iceland-SE,64,-16.65,2119,Stratovolcano,Historical
Orizaba. Pico de,Mexico,Mexico,19.03,-97.27,5675,Stratovolcano,Historical
Ormus Islands,Indian Ocean,Arabia-S,26,57,0,Submarine volcano,Holocene
Orosi,Costa Rica,Costa Rica,10.98,-85.47,1659,Stratovolcano,Uncertain
Oshima,Japan,Izu Is-Japan,34.73,139.38,758,Stratovolcano,Historical
Oshima-Oshima,Japan,Hokkaido-Japan,41.5,139.37,737,Stratovolcano,Historical
Osore-yama,Japan,Honshu-Japan,41.32,141.08,879,Stratovolcano,Historical
Osorno,Chile,Chile-S,-41.1,-72.49,2652,Stratovolcano,Historical
Ostanets,Russia,Kamchatka,52.15,157.32,719,Shield volcano,Holocene
Ostry,Russia,Kamchatka,58.18,160.82,2552,Stratovolcano,Holocene
Otdelniy,Russia,Kamchatka,52.22,157.43,791,Shield volcano,Holocene
Overo. Cerro,Chile,Chile-N,-23.35,-67.67,4555,Maar,Holocene
Ozernoy,Russia,Kamchatka,51.88,157.38,562,Shield volcano,Holocene
Pacaya,Guatemala,Guatemala,14.38,-90.6,2552,Complex volcano,Historical
Paco,Philippines,Mindanao-Philippines,9.59,125.52,524,Stratovolcano,Anthropology
Pagan,United States,Mariana Is-C Pacific,18.13,145.8,570,Stratovolcano,Historical
Pago,Papua New Guinea,New Britain-SW Pac,-5.58,150.52,742,Caldera,Historical
Paka,Kenya,Africa-E,0.92,36.18,1697,Shield volcano,Ar/Ar
Palei-Aike Volc Field,Chile,Chile-S,-52,-70,250,Cinder cone,Anthropology
Palena Volc Group,Chile,Chile-S,-43.68,-72.5,0,Cinder cone,Holocene
Palinuro,Italy,Italy,39.48,14.83,-70,Submarine volcano,Radiocarbon
Palomo,Chile,Chile-C,-34.61,-70.3,4860,Stratovolcano,Holocene
Paluweh,Indonesia,Lesser Sunda Is,-8.32,121.71,875,Stratovolcano,Historical
Pampa Luxsar,Bolivia,Bolivia,-20.85,-68.2,5543,Volcanic field,Holocene
Pantelleria,Italy,Italy,36.77,12.02,836,Shield volcano,Historical
Pantoja. Cerro,Chile,Chile-C,-40.77,-71.95,2112,Stratovolcano,Holocene
Papandayan,Indonesia,Java,-7.32,107.73,2665,Stratovolcano,Historical
Papayo,Mexico,Mexico,19.31,-98.7,3600,Lava dome,Holocene
Paricutin Volcanic Field,Mexico,Mexico,19.48,-102.25,3860,Cinder cone,Historical
Parker,Philippines,Mindanao-Philippines,6.12,124.89,1824,Stratovolcano,Historical
Patah,Indonesia,Sumatra,-4.27,103.3,2817,Unknown,Uncertain
Patates. Morne,Dominica,W Indies,15.22,-61.37,960,Stratovolcano,Radiocarbon
Patilla Pata,Bolivia,Bolivia,-18.05,-69.03,5300,Stratovolcano,Holocene
Patoc,Philippines,Luzon-Philippines,17.15,120.98,1865,Stratovolcano,Fumarolic
Patuha,Indonesia,Java,-7.15,107.37,2434,Stratovolcano,Holocene
Paulet,Antarctica,Antarctica,-63.58,-55.77,353,Cinder cone,Holocene
Pavlof,United States,Alaska Peninsula,55.42,-161.9,2519,Stratovolcano,Historical
Pavlof Sister,United States,Alaska Peninsula,55.45,-161.87,2142,Stratovolcano,Historical
Payun Matru. Cerro,Argentina,Argentina,-36.42,-69.2,3691,Shield volcano,Holocene
Peinado,Argentina,Argentina,-26.62,-68.15,5740,Stratovolcano,Holocene
Pelee,Martinique,W Indies,14.82,-61.17,1397,Stratovolcano,Historical
Penanggungan,Indonesia,Java,-7.62,112.63,1653,Stratovolcano,Holocene
Pendan,Indonesia,Sumatra,-2.82,102.02,0,Unknown,Holocene
Penguin Island,Antarctica,Antarctica,-62.1,-57.93,180,Stratovolcano,Lichenometry
Perbakti,Indonesia,Java,-6.75,106.68,1699,Stratovolcano,Fumarolic
Petacas,Colombia,Colombia,1.57,-76.78,4054,Lava dome,Holocene
Peter I Island,Antarctica,Antarctica,-68.85,-90.58,1640,Shield volcano,Holocene
Peuet Sague,Indonesia,Sumatra,4.91,96.33,2801,Complex volcano,Historical
Pico,Portugal,Azores,38.47,-28.4,2351,Stratovolcano,Historical
Piip,Russia,Kamchatka-E of,55.42,167.33,-300,Submarine volcano,Tephrochronology
Pilas. Las,Nicaragua,Nicaragua,12.5,-86.69,1088,Complex volcano,Historical
Pina. Cerro,Chile,Chile-N,-19.49,-68.65,4037,Unknown,Holocene
Pinacate,Mexico,Mexico,31.77,-113.5,1200,Cinder cone,Holocene
Pinatubo,Philippines,Luzon-Philippines,15.13,120.35,1486,Stratovolcano,Historical
Pinta,Ecuador,Galapagos,0.58,-90.75,780,Shield volcano,Historical
Piparo,Trinidad,Trinidad,10,-61,140,Mud volcano,Historical
Piratkovsky,Russia,Kamchatka,52.11,157.85,1322,Stratovolcano,Holocene
Planchon-Peteroa,Chile,Chile-C,-35.24,-70.57,4107,Caldera,Historical
Platanar,Costa Rica,Costa Rica,10.3,-84.37,2267,Stratovolcano,Holocene
Pleiades. The,Antarctica,Antarctica,-72.67,165.5,3040,Stratovolcano,K-Ar
Plosky,Russia,Kamchatka,55.2,158.47,1236,Shield volcano,Holocene
Plosky,Russia,Kamchatka,57.83,160.25,1255,Shield volcano,Holocene
Plosky Volc Group,Russia,Kamchatka,52.02,157.53,681,Volcanic field,Holocene
Poas,Costa Rica,Costa Rica,10.2,-84.23,2708,Stratovolcano,Historical
Pocdol Mountains,Philippines,Luzon-Philippines,13.05,123.96,1102,Compound volcano,Holocene
Poco Leok,Indonesia,Lesser Sunda Is,-8.68,120.48,1675,Unknown,Fumarolic
Pogranychny,Russia,Kamchatka,56.85,159.8,1427,Shield volcano,Holocene
Popa,Myanmar,SE Asia,20.87,95.23,1518,Stratovolcano,Anthropology
Popocatepetl,Mexico,Mexico,19.02,-98.62,5426,Stratovolcano,Historical
Porak,Armenia,Armenia,40.02,45.78,2800,Stratovolcano,Anthropology
Possession. Ile de la,Indian Ocean,Indian O-S,-46.42,51.63,934,Stratovolcano,Holocene
Prestahnukur,Iceland,Iceland-SW,64.6,-20.58,1390,Subglacial volcano,Radiocarbon
Prevo Peak,Russia,Kuril Is,47.02,152.12,1360,Stratovolcano,Historical
Prieto. Cerro,Mexico,Mexico,32.42,-115.31,223,Lava dome,Holocene
Prince Edward Island,Indian Ocean,Indian O-S,-46.63,37.95,672,Shield volcano,Holocene
Protector Shoal,Antarctica,Antarctica,-55.92,-28.08,-27,Submarine volcano,Historical
Puesto Cortaderas,Argentina,Argentina,-37.55,-69.62,970,Pyroclastic cone,Holocene
Puesto Cortaderas,Argentina,Argentina,-37.57,-69.62,970,Pyroclastic cone,Holocene
Pular,Chile,Chile-N,-24.18,-68.05,6233,Stratovolcano,Holocene
Pululagua,Ecuador,Ecuador,0.04,-78.46,3356,Caldera,Radiocarbon
Puntiagudo-Cordon Cenizo,Chile,Chile-C,-40.97,-72.26,2493,Stratovolcano,Historical
Purace,Colombia,Colombia,2.32,-76.4,4650,Stratovolcano,Historical
Purico Complex,Chile,Chile-N,-23,-67.75,5703,Pyroclastic shield,Holocene
Putana,Chile,Chile-N,-22.57,-67.87,5890,Stratovolcano,Historical
Puyehue,Chile,Chile-C,-40.59,-72.12,2236,Stratovolcano,Holocene
Puyuhuapi,Chile,Chile-S,-44.3,-72.53,255,Cinder cone,Holocene
Qal'eh Hasan Ali,Iran,Iran,29.4,57.57,0,Maar,Holocene
Qualibou,St. Lucia,W Indies,13.83,-61.05,777,Caldera,Historical
Quetrupillan,Chile,Chile-C,-39.5,-71.7,2360,Caldera,Historical
Quezaltepeque,Guatemala,Guatemala,14.65,-89.35,1200,Volcanic field,Holocene
Quill. The,Netherlands,W Indies,17.48,-62.95,601,Stratovolcano,Radiocarbon
Quilotoa,Ecuador,Ecuador,-0.85,-78.9,3914,Caldera,Radiocarbon
Quimsachata,Peru,Peru,-14.37,-71.17,3923,Lava dome,Holocene
Rabaul,Papua New Guinea,New Britain-SW Pac,-4.27,152.2,688,Pyroclastic shield,Historical
Ragang,Philippines,Mindanao-Philippines,7.67,124.5,2815,Stratovolcano,Historical
Rahah. Harrat ar,Saudi Arabia,Arabia-W,27.8,36.17,1660,Volcanic field,Anthropology
Rahat. Harrat,Saudi Arabia,Arabia-W,23.08,39.78,1744,Volcanic field,Historical
Raikoke,Russia,Kuril Is,48.29,153.25,551,Stratovolcano,Historical
Rainier,United States,US-Washington,46.87,-121.76,4392,Stratovolcano,Dendrochronology
Rajabasa,Indonesia,Sumatra,-5.78,105.63,1281,Stratovolcano,Fumarolic
Ranakah,Indonesia,Lesser Sunda Is,-8.62,120.52,2100,Lava dome,Historical
Ranau,Indonesia,Sumatra,-4.83,103.92,1881,Caldera,Holocene
Raoul Island,New Zealand,Kermadec Is,-29.27,-177.92,516,Stratovolcano,Historical
Rasshua,Russia,Kuril Is,47.77,153.02,956,Stratovolcano,Historical
Raung,Indonesia,Java,-8.13,114.04,3332,Stratovolcano,Historical
Rausu,Japan,Hokkaido-Japan,44.07,145.13,1660,Stratovolcano,Tephrochronology
Recheschnoi,United States,Aleutian Is,53.15,-168.55,1984,Stratovolcano,Holocene
Reclus,Chile,Chile-S,-50.98,-73.7,0,Stratovolcano,Radiocarbon
Red Cones,United States,US-California,37.58,-119.05,2748,Cinder cone,Holocene
Redoubt,United States,Alaska-SW,60.48,-152.75,3108,Stratovolcano,Historical
Reporoa,New Zealand,New Zealand,-38.42,176.33,592,Caldera,Tephrochronology
Resago. Volcan,Chile,Chile-C,-36.45,-70.92,1550,Cinder cone,Holocene
Reventador,Ecuador,Ecuador,-0.08,-77.66,3562,Stratovolcano,Historical
Reykjanes,Iceland,Iceland-SW,63.88,-22.5,230,Crater rows,Historical
Reykjaneshryggur,Iceland,Iceland-SW,63.67,-23.33,80,Submarine volcanoes,Historical
Rincon de la Vieja,Costa Rica,Costa Rica,10.83,-85.32,1916,Complex volcano,Historical
Rinjani,Indonesia,Lesser Sunda Is,-8.42,116.47,3726,Stratovolcano,Historical
Risco Plateado,Argentina,Argentina,-34.93,-70,4999,Stratovolcano,Holocene?
Rishiri,Japan,Hokkaido-Japan,45.18,141.25,1719,Stratovolcano,Radiocarbon
Ritter Island,Papua New Guinea,New Guinea-NE of,-5.52,148.12,140,Stratovolcano,Historical
Robinson Crusoe,Chile,Chile-Is,-33.66,-78.85,922,Shield volcano,Historical
Robledo,Argentina,Argentina,-26.77,-67.72,4400,Caldera,Holocene
Rocard,France,Society Is-C Pacific,-17.64,-148.6,-2100,Submarine volcano,Seismicity
Romanovka,Russia,Kamchatka,55.65,158.8,1442,Stratovolcano,Holocene
Rota,Nicaragua,Nicaragua,12.55,-86.75,832,Stratovolcano,Holocene
Roundtop,United States,Aleutian Is,54.8,-163.6,1871,Stratovolcano,Holocene
Royal Society Range,Antarctica,Antarctica,-78.25,163.6,3000,Cinder cone,Holocene
Ruang,Indonesia,Sangihe Is-Indonesia,2.28,125.43,725,Stratovolcano,Historical
Ruapehu,New Zealand,New Zealand,-39.28,175.57,2797,Stratovolcano,Historical
Ruby,United States,Mariana Is-C Pacific,15.62,145.57,-230,Submarine volcano,Historical
Ruby,United States,Mariana Is-C Pacific,15.62,145.57,-230,Submarine volcano,Historical
Ruby Mountain,Canada,Canada,59.68,-133.32,1523,Cinder cone,Historical
Rudakov,Russia,Kuril Is,45.88,149.83,542,Stratovolcano,Holocene
Ruiz,Colombia,Colombia,4.9,-75.32,5321,Stratovolcano,Historical
Rumble II West,New Zealand,New Zealand,-35.35,178.53,1200,Submarine volcano,Fumarolic
Rumble III,New Zealand,New Zealand,-35.75,178.48,-140,Submarine volcano,Hydrophonic
Rumble IV,New Zealand,New Zealand,-36.13,178.05,-450,Submarine volcano,Fumarolic
Rumble V,New Zealand,New Zealand,-36.14,178.2,-700,Submarine volcano,Fumarolic
Rungwe,Tanzania,Africa-E,-9.13,33.67,2961,Stratovolcano,Holocene
Río Murta,Chile,Chile-S,-46.17,-72.67,,Pyroclastic cones,Holocene?
SW Usangu Basin,Tanzania,Africa-E,-8.75,33.8,2179,Lava dome,Holocene
Saba,Netherlands,W Indies,17.63,-63.23,887,Stratovolcano,Historical
Sabalan,Iran,Iran,38.25,47.92,4811,Stratovolcano,Holocene
Sabancaya,Peru,Peru,-15.78,-71.85,5967,Stratovolcanoes,Historical
Sabancaya,Peru,Peru,-15.78,-71.85,5967,Stratovolcano,Historical
Sahand,Iran,Iran,37.75,46.43,3707,Stratovolcano,Holocene
Sairecabur,Bolivia,Chile-N,-22.73,-67.88,5971,Stratovolcano,Holocene
Sakar,Papua New Guinea,New Guinea-NE of,-5.41,148.09,992,Stratovolcano,Holocene
Sakura-jima,Japan,Kyushu-Japan,31.58,130.67,1117,Stratovolcano,Historical
Salak,Indonesia,Java,-6.72,106.73,2211,Stratovolcano,Historical
San Borja Volc Field,Mexico,Mexico,28.5,-113.75,1360,Cinder cone,Holocene
San Carlos,Equatorial Guinea,Africa-W,3.35,8.52,2260,Shield volcano,Holocene
San Cristobal,Ecuador,Galapagos,-0.88,-89.5,759,Shield volcano,Holocene
San Cristobal,Nicaragua,Nicaragua,12.7,-87,1745,Stratovolcano,Historical
San Diego,El Salvador,El Salvador,14.27,-89.48,781,Volcanic field,Holocene
San Felix,Chile,Chile-Is,-26.27,-80.12,183,Shield volcano,Holocene
San Joaquin,Equatorial Guinea,Africa-W,3.35,8.63,2009,Shield volcano,Holocene
San Jorge,Portugal,Azores,38.65,-28.08,1053,Fissure vent,Historical
San Jose,Argentina,Chile-C,-33.78,-69.9,5856,Stratovolcano,Historical
San Luis. Isla,Mexico,Mexico,29.81,-114.38,180,Tuff cone,Holocene
San Marcelino,El Salvador,El Salvador,13.85,-89.63,2381,Stratovolcano,Historical
San Martin,Mexico,Mexico,18.57,-95.17,1650,Shield volcano,Historical
San Miguel,El Salvador,El Salvador,13.43,-88.27,2130,Stratovolcano,Historical
San Pedro,Chile,Chile-N,-21.88,-68.4,6145,Stratovolcano,Historical
San Pedro-Pellado,Chile,Chile-C,-35.99,-70.85,3621,Stratovolcano,Holocene
San Quintin Volc Field,Mexico,Mexico,30.47,-116,260,Cinder cone,Holocene
San Salvador,El Salvador,El Salvador,13.74,-89.29,1893,Stratovolcano,Historical
San Vicente,El Salvador,El Salvador,13.62,-88.85,2182,Stratovolcano,Holocene
Sanbe,Japan,Honshu-Japan,35.13,132.62,1126,Caldera,Radiocarbon
Sand Mountain Field,United States,US-Oregon,44.38,-121.93,1664,Cinder cone,Radiocarbon
Sanford,United States,Alaska-E,62.22,-144.13,4949,Shield volcano,Holocene
Sanganguey,Mexico,Mexico,21.45,-104.73,2340,Stratovolcano,Holocene
Sangangüey,Mexico,Mexico,21.45,-104.73,2340,Stratovolcano,Holocene
Sangay,Ecuador,Ecuador,-2.03,-78.33,5230,Stratovolcano,Historical
Sangeang Api,Indonesia,Lesser Sunda Is,-8.18,119.06,1949,Complex volcano,Historical
Sano. Wai,Indonesia,Lesser Sunda Is,-8.68,120.03,903,Caldera,Holocene
Santa Ana,El Salvador,El Salvador,13.85,-89.63,2365,Stratovolcano,Historical
Santa Clara,United States,US-Utah,37.26,-113.63,1465,Volcanic field,Holocene
Santa Cruz,Ecuador,Galapagos,-0.62,-90.33,864,Shield volcano,Holocene
Santa Isabel,Equatorial Guinea,Africa-W,3.58,8.75,2972,Shield volcano,Historical
Santa Isabel,Colombia,Colombia,4.82,-75.37,4950,Shield volcano,Radiocarbon
Santa Maria,Guatemala,Guatemala,14.76,-91.55,3772,Stratovolcano,Historical
Santiago,Ecuador,Galapagos,-0.22,-90.77,920,Shield volcano,Historical
Santiago. Cerro,Guatemala,Guatemala,14.33,-89.87,1192,Volcanic field,Holocene
Santo Antao,Cape Verde,Cape Verde Is,17.07,-25.17,1979,Stratovolcano,Holocene
Santo Tomas,Philippines,Luzon-Philippines,16.33,120.55,2260,Stratovolcano,Uncertain
Santorini,Greece,Greece,36.4,25.4,329,Shield volcano,Historical
Sao Tome,Sao Tome & Principe,Africa-W,0.32,6.72,2024,Shield volcano,Holocene
Sarigan,United States,Mariana Is-C Pacific,16.71,145.78,538,Stratovolcano,Holocene
Sarigan,United States,Mariana Is-C Pacific,16.71,145.78,538,Stratovolcano,Holocene
Sarik-Gajah,Indonesia,Sumatra,0.08,100.2,0,Pyroclastic cone,Holocene
Sarychev Peak,Russia,Kuril Is,48.09,153.2,1496,Stratovolcano,Historical
Satah Mountain,Canada,Canada,52.47,-124.7,1921,Volcanic field,Holocene
Savai'i,Samoa,Samoa-SW Pacific,-13.61,-172.53,1858,Shield volcano,Historical
Savo,Solomon Is.,Solomon Is-SW Pacifi,-9.13,159.82,510,Stratovolcano,Historical
Sawad. Harra Es-,Yemen,Arabia-S,13.58,46.12,1737,Volcanic field,Historical
Schmidt,Russia,Kamchatka,54.92,160.63,2020,Shield volcano,Holocene
Seal Nunataks Group,Antarctica,Antarctica,-65.03,-60.05,368,Pyroclastic cone,Historical
Seamount X,United States,Mariana Is-C Pacific,13.25,144.02,-1230,Submarine volcano,Fumarolic
Sedankinsky,Russia,Kamchatka,57.23,160.08,1241,Shield volcano,Holocene
Segererua Plateau,Kenya,Africa-E,1.57,37.9,699,Pyroclastic cone,Holocene
Seguam,United States,Aleutian Is,52.32,-172.52,1054,Stratovolcano,Historical
Segula,United States,Aleutian Is,52.02,178.13,1153,Stratovolcano,Holocene
Sekincau Belirang,Indonesia,Sumatra,-5.12,104.32,1719,Caldera,Fumarolic
Semeru,Indonesia,Java,-8.11,112.92,3676,Stratovolcano,Historical
Semisopochnoi,United States,Aleutian Is,51.95,179.62,1221,Stratovolcano,Historical
Sempu,Indonesia,Sulawesi-Indonesia,1.14,124.73,1549,Caldera,Fumarolic
Serdan-Oriental,Mexico,Mexico,19.27,-97.47,3485,Tuff cone,Holocene
Sergief,United States,Aleutian Is,52.03,-174.93,560,Stratovolcano,Uncertain
Serua,Pacific Ocean,Banda Sea,-6.3,130,641,Stratovolcano,Historical
Sessagara,Papua New Guinea,New Guinea,-9.48,149.13,370,Unknown,Holocene
Sete Cidades,Portugal,Azores,37.87,-25.78,856,Stratovolcano,Historical
Seulawah Agam,Indonesia,Sumatra,5.45,95.66,1810,Stratovolcano,Historical
Severny,Russia,Kamchatka,58.28,160.87,1936,Shield volcano,Holocene
Shala,Ethiopia,Africa-NE,7.47,38.55,2075,Stratovolcano,Holocene
Sharat Kovakab,Syria,Syria,36.53,40.85,534,Volcanic field,Holocene
Shasta,United States,US-California,41.42,-122.2,4317,Stratovolcano,Historical
Shiga,Japan,Honshu-Japan,36.7,138.52,2036,Shield volcano,Holocene
Shikaribetsu Group,Japan,Hokkaido-Japan,43.28,143.08,1430,Lava dome,Holocene
Shikotsu,Japan,Hokkaido-Japan,42.7,141.33,1320,Caldera,Historical
Shiretoko-Iwo-zan,Japan,Hokkaido-Japan,44.13,145.17,1563,Stratovolcano,Historical
Shirinki,Russia,Kuril Is,50.2,154.98,761,Stratovolcano,Holocene
Shishaldin,United States,Aleutian Is,54.75,-163.97,2857,Stratovolcano,Historical
Shisheika,Russia,Kamchatka,57.15,161.08,379,Lava dome,Radiocarbon
Shishel,Russia,Kamchatka,57.45,160.37,2525,Shield volcano,Holocene
Shiveluch,Russia,Kamchatka,56.65,161.36,3283,Stratovolcano,Historical
Shoshone Lava Field,United States,US-Idaho,43.07,-114.43,1525,Cinder cone,Holocene
Sibayak,Indonesia,Sumatra,3.2,98.52,2212,Stratovolcano,Historical
Sibualbuali,Indonesia,Sumatra,1.56,99.26,1819,Stratovolcano,Holocene
Silali,Kenya,Africa-E,1.15,36.23,1528,Shield volcano,Ar/Ar
Silay,Philippines,Philippines-C,10.77,123.23,1535,Stratovolcano,Holocene
Silverthrone,Canada,Canada,51.43,-126.3,3160,Caldera,Holocene
Simbo,Solomon Is.,Solomon Is-SW Pacifi,-8.29,156.52,335,Stratovolcano,Uncertain
Sinabung,Indonesia,Sumatra,3.17,98.39,2460,Stratovolcano,Holocene
Sinarka,Russia,Kuril Is,48.88,154.18,934,Stratovolcano,Historical
Singu Plateau,Myanmar,SE Asia,22.7,95.98,507,Fissure vent,Holocene
Singuil. Cerro,El Salvador,El Salvador,14.03,-89.7,957,Cinder cone,Holocene
Siple,Antarctica,Antarctica,-73.43,-126.67,3110,Shield volcano,Holocene
Sirung,Indonesia,Lesser Sunda Is,-8.51,124.15,862,Complex volcano,Historical
Slamet,Indonesia,Java,-7.24,109.21,3432,Stratovolcano,Historical
Smirnov,Russia,Kuril Is,44.43,146.13,1189,Stratovolcano,Holocene
Smith Rock,Japan,Izu Is-Japan,31.32,140.05,136,Submarine volcano,Historical
Smith Volcano,Philippines,Luzon-N of,19.52,121.94,2090,Stratovolcano,Historical
Snaefellsjokull,Iceland,Iceland-W,64.8,-23.78,1448,Stratovolcano,Radiocarbon
Snegovoy,Russia,Kamchatka,58.2,160.97,2169,Shield volcano,Holocene
Snezhniy,Russia,Kamchatka,58.02,160.75,2169,Shield volcano,Holocene
Snowy,United States,Alaska Peninsula,58.33,-154.68,2161,Stratovolcano,Fumarolic
Soche,Ecuador,Ecuador,0.55,-77.58,3955,Stratovolcano,Radiocarbon
Socompa,Argentina,Chile-N,-24.4,-68.25,6051,Stratovolcano,Radiocarbon
Socorro,Mexico,Mexico-Is,18.78,-110.95,1050,Shield volcano,Historical
Sodore,Ethiopia,Africa-NE,8.43,39.35,1765,Pyroclastic cone,Holocene
Sollipulli,Chile,Chile-C,-38.97,-71.52,2282,Caldera,Radiocarbon
Soputan,Indonesia,Sulawesi-Indonesia,1.11,124.73,1784,Stratovolcano,Historical
Sorikmarapi,Indonesia,Sumatra,0.69,99.54,2145,Stratovolcano,Historical
Sorkale,Ethiopia,Africa-NE,13.18,41.73,1611,Stratovolcano,Holocene
Sotara,Colombia,Colombia,2.12,-76.58,4400,Stratovolcano,Holocene
Soufriere Guadeloupe,Guadeloupe,W Indies,16.05,-61.67,1467,Stratovolcano,Historical
Soufriere Hills,Montserrat,W Indies,16.72,-62.18,915,Stratovolcano,Historical
Soufriere St. Vincent,St. Vincent & the Grenadines,W Indies,13.33,-61.18,1220,Stratovolcano,Historical
South Island,Kenya,Africa-E,2.63,36.6,700,Stratovolcano,Historical
South Sister,United States,US-Oregon,44.1,-121.77,3157,Complex volcano,Radiocarbon
Southern EPR-Segment I,Pacific Ocean,Pacific-E,-18.53,-113.42,-2600,Submarine volcano,Magnetism
Southern EPR-Segment J,Pacific Ocean,Pacific-E,-18.18,-113.35,-2650,Submarine volcano,Magnetism
Southern EPR-Segment K,Pacific Ocean,Pacific-E,-17.44,-113.21,-2566,Submarine volcano,Historical
Southern Sikhote-Alin,Russia,Russia-SE,44.5,135.5,0,Volcanic field,Holocene
Spectrum Range,Canada,Canada,57.43,-130.68,2430,Shield volcano,Holocene
Spokoiny,Russia,Kamchatka,58.13,160.82,2171,Stratovolcano,Radiocarbon
Spurr,United States,Alaska-SW,61.3,-152.25,3374,Stratovolcano,Historical
Squaw Ridge Field,United States,US-Oregon,43.47,-120.75,1711,Volcanic field,Holocene
Srednii,Russia,Kuril Is,47.6,152.92,36,Submarine volcano,Holocene
St. Andrew Strait,Papua New Guinea,Admiralty Is-SW Paci,-2.38,147.35,270,Complex volcano,Historical
St. Catherine,Grenada,W Indies,12.15,-61.67,840,Stratovolcano,Holocene
St. Helens,United States,US-Washington,46.2,-122.18,2549,Stratovolcano,Historical
St. Michael,United States,Alaska-W,63.45,-162.12,715,Shield volcano,Anthropology
St. Paul,Indian Ocean,Indian O-S,-38.72,77.53,268,Stratovolcano,Historical
Steamboat Springs,United States,US-Nevada,39.38,-119.72,1415,Lava dome,Pleistocene-Fumarol
Steller,United States,Alaska Peninsula,58.43,-154.4,2272,Unknown,Uncertain
Stepovak Bay 3,United States,Alaska Peninsula,55.93,-160,1555,Cinder cone,Holocene?
Stepovak Bay 4,United States,Alaska Peninsula,55.95,-159.95,1557,Stratovolcano,Pleistocene
Stromboli,Italy,Italy,38.79,15.21,926,Stratovolcano,Historical
Sturge Island,Antarctica,Antarctica,-67.4,164.83,1167,Stratovolcano,Uncertain
Suchitan Volc Field,Guatemala,Guatemala,14.4,-89.78,2042,Stratovolcano,Holocene
Sukaria Caldera,Indonesia,Lesser Sunda Is,-8.79,121.77,1500,Caldera,Fumarolic
Sumaco,Ecuador,Ecuador,-0.54,-77.63,3990,Stratovolcano,Historical
Sumbing,Indonesia,Sumatra,-2.41,101.73,2507,Stratovolcano,Historical
Sumbing,Indonesia,Java,-7.38,110.06,3371,Stratovolcano,Historical
Sumiyoshi-ike,Japan,Kyushu-Japan,31.77,130.59,100,Maar,Radiocarbon
Sundoro,Indonesia,Java,-7.3,109.99,3136,Stratovolcano,Historical
Sunset Crater,United States,US-Arizona,35.37,-111.5,2447,Cinder cone,Dendrochronology
Suoh,Indonesia,Sumatra,-5.25,104.27,1000,Maar,Historical
Suphan Dagi,Turkey,Turkey,38.92,42.82,4434,Stratovolcano,Holocene
Supply Reef,United States,Mariana Is-C Pacific,20.13,145.1,-8,Submarine volcano,Hydrophonic
Suretamatai,Vanuatu,Vanuatu-SW Pacific,-13.8,167.47,921,Complex volcano,Historical
Suswa,Kenya,Africa-E,-1.18,36.35,2356,Shield volcano,Holocene
Suwanose-jima,Japan,Ryukyu Is,29.53,129.72,799,Stratovolcano,Historical
Ta'u,United States,Samoa-SW Pacific,-14.23,-169.45,931,Shield volcano,Holocene
Taal,Philippines,Luzon-Philippines,14,120.99,400,Stratovolcano,Historical
Taburete,El Salvador,El Salvador,13.44,-88.53,1172,Stratovolcano,Holocene
Tacana,Mexico,Mexico,15.13,-92.11,4110,Stratovolcano,Historical
Tacora,Chile,Chile-N,-17.72,-69.77,5980,Stratovolcano,Fumarolic
Taftan,Iran,Iran,28.6,61.6,4050,Stratovolcano,Holocene
Tafu-Maka,Tonga,Tonga-SW Pacific,-15.37,-174.23,-1400,Submarine volcano,Historical
Tahalra Volc Field,Algeria,Africa-N,22.67,5,1467,Pyroclastic cones,Holocene
Tahual,Guatemala,Guatemala,14.43,-89.9,1716,Stratovolcano,Holocene
Tair. Jebel at,Yemen,Red Sea,15.7,41.74,244,Stratovolcano,Historical
Tajumulco,Guatemala,Guatemala,15.03,-91.9,4220,Stratovolcano,Holocene
Takahara,Japan,Honshu-Japan,36.9,139.78,1795,Stratovolcano,Holocene
Takahe,Antarctica,Antarctica,-76.28,-112.08,3460,Shield volcano,Ice Core
Takawangha,United States,Aleutian Is,51.87,-178.02,1449,Stratovolcano,Holocene
Takuan Group,Papua New Guinea,Bougainville-SW Paci,-6.44,155.61,2210,Volcanic complex,Holocene
Talagabodas,Indonesia,Java,-7.21,108.07,2201,Stratovolcano,Fumarolic
Talakmau,Indonesia,Sumatra,0.08,99.98,2919,Complex volcano,Holocene
Talang,Indonesia,Sumatra,-0.98,100.68,2597,Stratovolcano,Historical
Tambora,Indonesia,Lesser Sunda Is,-8.25,118,2850,Stratovolcano,Historical
Tampomas,Indonesia,Java,-6.77,107.95,1684,Stratovolcano,Holocene
Tana,United States,Aleutian Is,52.83,-169.77,1170,Stratovolcanoes,Holocene
Tanaga,United States,Aleutian Is,51.88,-178.13,1806,Stratovolcano,Historical
Tandikat,Indonesia,Sumatra,-0.43,100.32,2438,Stratovolcano,Historical
Tangaroa,New Zealand,New Zealand,-36.32,178.03,600,Submarine volcano,Fumarolic
Tangkubanparahu,Indonesia,Java,-6.77,107.6,2084,Stratovolcano,Historical
Tao-Rusyr Caldera,Russia,Kuril Is,49.35,154.7,1325,Stratovolcano,Historical
Tara. Batu,Indonesia,Lesser Sunda Is,-7.79,123.58,748,Stratovolcano,Historical
Tarakan,Indonesia,Halmahera-Indonesia,1.78,127.79,318,Pyroclastic cone,Holocene
Taryatu-Chulutu,Mongolia,Mongolia,48.17,99.7,2400,Volcanic field,Holocene
Tat Ali,Ethiopia,Africa-NE,13.28,41.07,700,Shield volcano,Holocene
Tate-yama,Japan,Honshu-Japan,36.57,137.6,2621,Stratovolcano,Historical
Tateshina,Japan,Honshu-Japan,36.1,138.3,2530,Stratovolcano,Holocene
Tatun Group,China,Taiwan,25.17,121.52,1120,Stratovolcano,Pleistocene-Fumarol
Taunshits,Russia,Kamchatka,54.53,159.8,2353,Stratovolcano,Radiocarbon
Taupo,New Zealand,New Zealand,-38.82,176,760,Caldera,Radiocarbon
Taveuni,Fiji,Fiji Is-SW Pacific,-16.82,-179.97,1241,Shield volcano,Radiocarbon
Tavui,Papua New Guinea,New Britain-SW Pac,-4.12,152.2,200,Caldera,Radiocarbon
Teahitia,France,Society Is-C Pacific,-17.57,-148.85,-1600,Submarine volcano,Seismicity
Tecapa,El Salvador,El Salvador,13.49,-88.5,1593,Stratovolcano,Holocene
Tecuamburro,Guatemala,Guatemala,14.16,-90.41,1845,Stratovolcano,Radiocarbon
Telica,Nicaragua,Nicaragua,12.6,-86.85,1061,Stratovolcano,Historical
Telomoyo,Indonesia,Java,-7.37,110.4,1894,Stratovolcano,Holocene
Telong. Bur Ni,Indonesia,Sumatra,4.77,96.81,2624,Stratovolcano,Historical
Tenduruk Dagi,Turkey,Turkey,39.33,43.83,3584,Shield volcano,Holocene
Tenerife,Spain,Canary Is,28.27,-16.64,3715,Stratovolcano,Historical
Tengchong,China,China-S,25.32,98.47,2865,Pyroclastic cone,Historical
Tengger Caldera,Indonesia,Java,-7.94,112.95,2329,Stratovolcano,Historical
Tenorio,Costa Rica,Costa Rica,10.67,-85.02,1916,Stratovolcano,Holocene
Teon,Pacific Ocean,Banda Sea,-6.92,129.13,655,Stratovolcano,Historical
Tepi,Ethiopia,Africa-NE,7.42,35.43,2728,Shield volcano,Holocene
Terceira,Portugal,Azores,38.73,-27.32,1023,Stratovolcano,Historical
Terpuk,Russia,Kamchatka,57.2,159.83,765,Shield volcano,Radiocarbon
Theistareykjarbunga,Iceland,Iceland,65.88,-16.83,564,Shield volcano,Tephrochronology
Thompson Island,Atlantic Ocean,Atlantic-S,-53.93,5.5,0,Submarine volcano,Uncertain
Thordarhyrna,Iceland,Iceland-S,62.27,-17.6,1659,Stratovolcano,Historical
Thule Islands,Antarctica,Antarctica,-59.45,-27.37,1075,Stratovolcano,Historical
Tianshan Volc Group,China,China-W,42.5,82.5,0,Volcanic field,Historical
Tiatia,Russia,Kuril Is,44.36,146.27,1819,Stratovolcano,Historical
Ticsani,Peru,Peru,-16.76,-70.6,5408,Stratovolcano,Holocene
Tidore,Indonesia,Halmahera-Indonesia,0.65,127.4,1730,Stratovolcano,Holocene
Tigalalu,Indonesia,Halmahera-Indonesia,0.07,127.42,422,Unknown,Holocene
Tigre. El,El Salvador,El Salvador,13.47,-88.43,1640,Stratovolcano,Holocene
Tigre. Isla El,Honduras,Honduras,13.27,-87.63,760,Stratovolcano,Holocene
Tin Zaouatene Volc Field,Mali,Africa-N,19.83,2.83,,Volcanic field,Holocene
Tinakula,Solomon Is.,Santa Cruz Is-SW Pac,-10.38,165.8,851,Stratovolcano,Historical
Tindfjallajokull,Iceland,Iceland-S,63.78,-19.57,1463,Stratovolcano,Holocene
Tinguiririca,Chile,Chile-C,-34.81,-70.35,4280,Stratovolcano,Historical
Tipas,Argentina,Argentina,-27.2,-68.55,6660,Complex volcano,Holocene
Tipas,Argentina,Argentina,-27.2,-68.55,6660,Complex volcano,Holocene
Titila,Russia,Kamchatka,57.4,160.1,1559,Shield volcano,Holocene
Tjornes Fracture Zone,Iceland,Iceland-N of,66.3,-17.1,0,Submarine volcano,Historical
Tlevak Strait-Suemez Is.,United States,Alaska-SE,55.25,-133.3,50,Volcanic field,Holocene
To-shima,Japan,Izu Is-Japan,34.52,139.28,508,Stratovolcano,Holocene
Toba,Indonesia,Sumatra,2.58,98.83,2157,Caldera,Holocene
Tobaru,Indonesia,Halmahera-Indonesia,1.63,127.68,1035,Unknown,Holocene
Todoko-Ranu,Indonesia,Halmahera-Indonesia,1.22,127.43,979,Caldera,Holocene
Todra Volc Field,Chad,Africa-N,17.68,8.5,2000,Volcanic field,Holocene
Tofua,Tonga,Tonga-SW Pacific,-19.75,-175.07,512,Caldera,Historical
Toh. Tarso,Chad,Africa-N,21.33,16.33,2000,Volcanic field,Holocene
Tokachi,Japan,Hokkaido-Japan,43.42,142.68,2077,Stratovolcano,Historical
Tolbachik,Russia,Kamchatka,55.83,160.33,3682,Shield volcano,Historical
Tolguaca,Chile,Chile-C,-38.31,-71.65,2806,Stratovolcano,Holocene
Tolguaca,Chile,Chile-C,-38.31,-71.65,2806,Stratovolcano,Holocene
Tolima,Colombia,Colombia,4.67,-75.33,5200,Stratovolcano,Historical
Toliman,Guatemala,Guatemala,14.61,-91.19,3158,Stratovolcano,Holocene
Tolmachev Dol,Russia,Kamchatka,52.63,157.58,1021,Cinder cone,Holocene
Toluca. Nevado de,Mexico,Mexico,19.11,-99.76,4690,Stratovolcano,Radiocarbon
Tombel Graben,Cameroon,Africa-W,4.75,9.67,500,Cinder cones,Holocene
Tondano Caldera,Indonesia,Sulawesi-Indonesia,1.23,124.83,1202,Caldera,Fumarolic
Toney Mountain,Antarctica,Antarctica,-75.8,-115.83,3595,Shield volcano,Holocene
Tongariro,New Zealand,New Zealand,-39.13,175.64,1978,Stratovolcano,Historical
Tongkoko,Indonesia,Sulawesi-Indonesia,1.52,125.2,1149,Stratovolcano,Historical
Tore,Papua New Guinea,Bougainville-SW Paci,-5.83,154.93,2200,Lava cone,Holocene
Torfajokull,Iceland,Iceland-S,63.92,-19.17,1259,Stratovolcano,Historical
Tori-shima,Japan,Izu Is-Japan,30.48,140.32,403,Stratovolcano,Historical
Toroeng Prong,Vietnam,SE Asia,14.93,108,800,Cinder cone,Holocene
Tortuga. Isla,Mexico,Mexico,27.39,-111.86,210,Shield volcano,Holocene
Tosa Sucha,Ethiopia,Africa-NE,5.92,37.57,1650,Cinder cone,Holocene
Tousside. Tarso,Chad,Africa-N,21.03,16.45,3265,Stratovolcano,Holocene
Towada,Japan,Honshu-Japan,40.47,140.92,1159,Caldera,Historical
Traitor's Head,Vanuatu,Vanuatu-SW Pacific,-18.75,169.23,837,Stratovolcano,Historical
Tres Virgenes,Mexico,Mexico,27.47,-112.59,1940,Stratovolcano,Radiocarbon
Tri Sestry,Russia,Kuril Is,45.93,149.92,998,Stratovolcano,Holocene
Trident,United States,Alaska Peninsula,58.23,-155.08,1864,Stratovolcano,Historical
Trindade,Atlantic Ocean,Atlantic-S,-20.51,-29.33,600,Stratovolcano,Holocene
Tristan da Cunha,Atlantic Ocean,Atlantic-S,-37.09,-12.28,2060,Stratovolcano,Historical
Trocon,Argentina,Argentina,-37.73,-70.9,2500,Lava domes,Holocene?
Trollagigar,Iceland,Iceland-NE,64.43,-18.13,1000,Crater rows,Historical
Tromen,Argentina,Argentina,-37.14,-70.03,3978,Stratovolcano,Holocene
Tronador,Chile,Chile-S,-41.16,-71.89,3491,Stratovolcano,Holocene?
Tseax River Cone,Canada,Canada,55.12,-128.9,609,Pyroclastic cone,Radiocarbon
Tshibinda,Congo. DRC,Africa-C,-2.32,28.75,1460,Cinder cone,Holocene
Tskhouk-Karckar,Armenia,Armenia,39.73,46.02,3000,Pyroclastic cones,Tephrochronology
Tsurumi,Japan,Kyushu-Japan,33.28,131.43,1584,Lava dome,Historical
Tujle. Cerro,Chile,Chile-N,-23.83,-67.95,3550,Maar,Holocene
Tulabug,Ecuador,Ecuador,-1.78,-78.61,3336,Scoria cone,Holocene
Tullu Moje,Ethiopia,Africa-NE,8.16,39.13,2349,Pumice cone,Anthropology
Tumble Buttes,United States,US-California,40.68,-121.55,2191,Cinder cone,Holocene
Tundroviy,Russia,Kamchatka,52.25,157.6,739,Shield volcano,Holocene
Tungnafellsjokull,Iceland,Iceland-NE,64.73,-17.92,1535,Stratovolcano,Holocene
Tungurahua,Ecuador,Ecuador,-1.47,-78.44,5023,Stratovolcano,Historical
Tunkin Depression,Russia,Russia-SE,51.5,102.5,1200,Volcanic field,Holocene
Tupungatito,Chile,Chile-C,-33.4,-69.8,6000,Stratovolcano,Historical
Turfan,China,China-W,42.9,89.25,0,Cone,Historical
Turrialba,Costa Rica,Costa Rica,10.03,-83.77,3340,Stratovolcano,Historical
Tutuila,American Samoa,Samoa-SW Pacific,-14.3,-170.7,653,Tuff cone,Holocene
Tutupaca,Peru,Peru,-17.03,-70.36,5815,Stratovolcano,Historical
Tuya Volc Field,Canada,Canada,59.37,-130.58,2123,Volcanic field,Holocene
Tuzgle. Cerro,Argentina,Argentina,-24.05,-66.48,5500,Stratovolcano,Holocene?
Tuzovsky,Russia,Kamchatka,57.32,159.97,1533,Shield volcano,Holocene
Twin Buttes,United States,US-California,40.78,-121.6,1631,Cinder cone,Holocene
Ubehebe Craters,United States,US-California,37.02,-117.45,752,Maar,Holocene
Ubinas,Peru,Peru,-16.36,-70.9,5672,Stratovolcano,Historical
Udina,Russia,Kamchatka,55.76,160.53,2923,Stratovolcano,Holocene
Udokan Volc Field,Russia,Russia-SE,56.18,117.47,1980,Shield volcano,Radiocarbon
Ugashik-Peulik,United States,Alaska Peninsula,57.75,-156.37,1474,Stratovolcano,Historical
Uinkaret Field,United States,US-Arizona,36.38,-113.13,1555,Volcanic field,Holocene
Uka,Russia,Kamchatka,57.7,160.58,1643,Shield volcano,Holocene
Ukinrek Maars,United States,Alaska Peninsula,57.83,-156.52,91,Maar,Historical
Uksichan,Russia,Kamchatka,56.08,158.38,1692,Shield volcano,Holocene
Ulawun,Papua New Guinea,New Britain-SW Pac,-5.05,151.33,2334,Stratovolcano,Historical
Uliaga,United States,Aleutian Is,53.07,-169.77,888,Stratovolcano,Holocene
Ulreung,South Korea,Korea,37.5,130.87,984,Stratovolcano,Radiocarbon
Ulug-Arginsky,Russia,Russia-SE,52.33,98,1800,Cinder cone,Holocene
Umboi,Papua New Guinea,New Guinea-NE of,-5.59,147.88,1548,Complex volcano,Holocene
Umm Arafieb. Jebel,Sudan,Africa-N,18.17,33.83,0,Shield volcano,Holocene
Ungaran,Indonesia,Java,-7.18,110.33,2050,Stratovolcano,Holocene
Unnamed,Portugal,Azores,37.78,-25.67,350,Pyroclastic cone,Historical
Unnamed,United States,Hawaiian Is,23.58,-163.83,-4000,Submarine volcano,Historical
Unnamed,Mexico,Mexico,28,-115,0,Submarine volcano,Uncertain
Unnamed,Japan,Volcano Is-Japan,26.13,144.48,-3200,Submarine volcano,Uncertain
Unnamed,Papua New Guinea,New Britain-SW Pac,-4.75,150.85,0,Submarine volcano,Uncertain
Unnamed,Russia,Kamchatka,55.92,161.75,0,Cinder cone,Holocene
Unnamed,United States,Hawaiian Is,21.75,-158.75,-3000,Submarine volcano,Uncertain
Unnamed,United States,Mariana Is-C Pacific,21,142.9,0,Submarine volcano,Uncertain
Unnamed,Philippines,Luzon-N of,20.33,121.75,-24,Submarine volcano,Historical
Unnamed,Papua New Guinea,New Guinea-NE of,-4.31,146.26,-2000,Submarine volcano,Uncertain
Unnamed,Pacific Ocean,Pacific-NE,31.75,-124.25,-2533,Submarine volcano,Uncertain
Unnamed,Russia,Kuril Is,46.47,151.28,-502,Submarine volcano,Hydrophonic
Unnamed,Tanzania,Africa-E,-8.63,33.57,0,Pyroclastic cone,Holocene
Unnamed,United States,Alaska Peninsula,55.93,-160,1555,Cinder cone,Holocene
Unnamed,China,China-W,35.85,91.7,5400,Volcanic field,Holocene
Unnamed,Russia,Kamchatka,52.88,158.3,700,Shield volcano,Holocene
Unnamed,Russia,Kuril Is,46.1,150.5,-100,Submarine volcano,Uncertain
Unnamed,Russia,Kuril Is,45.03,147.21,-930,Submarine volcano,Uncertain
Unnamed,Vanuatu,Vanuatu-SW Pacific,-16.99,168.59,216,Stratovolcano,Holocene
Unnamed,United States,Mariana Is-C Pacific,20.3,143.2,0,Submarine volcano,Uncertain
Unnamed,Russia,Kamchatka,51.6,156.55,298,Cinder cone,Holocene
Unnamed,United States,Alaska Peninsula,57.87,-155.42,300,Lava dome,Holocene
Unnamed,Indian Ocean,Indian O-E,11.75,80.75,0,Submarine volcano,Uncertain
Unnamed,Indian Ocean,Arabia-S,12.25,45,0,Submarine volcano,Uncertain
Unnamed,Russia,Kamchatka,52.92,158.52,450,Shield volcano,Holocene
Unnamed,United States,Admiralty Is-SW Paci,-3.03,147.78,-1300,Submarine volcano,Hydrophonic
Unnamed,Iran,Iran,28.17,60.67,0,Volcanic field,Holocene
Unnamed,Taiwan,Taiwan-E of,24,121.83,0,Submarine volcano,Historical
Unnamed,Syria,Syria,32.66,36.43,1436,Volcanic field,Holocene
Unnamed,Taiwan,Taiwan-E of,19.17,132.25,-10,Submarine volcano,Uncertain
Unnamed,Syria,Syria,33.31,36.93,945,Volcanic field,Holocene
Unnamed,Syria,Syria,36.67,37,0,Unknown,Historical
Unnamed,Russia,Kamchatka,52.57,157.02,610,Cinder cone,Holocene
Unnamed,Russia,Kamchatka,52.33,157.33,638,Pyroclastic cone,Holocene
Unnamed,New Zealand,Kermadec Is,-29.18,-177.87,-560,Submarine volcano,Historical
Unnamed,United States,Samoa-SW Pacific,-14.23,-169.07,-650,Submarine volcano,Uncertain
Unnamed,Taiwan,Taiwan-N of,25.42,122.33,-100,Submarine volcano,Historical
Unnamed,Tonga,Tonga-SW Pacific,-21.07,-175.33,0,Not Volcanic,Historical
Unnamed,United States,Aleutian Is,52,-173.5,0,Submarine volcano,Hydrophonic
Unnamed,Chile,Chile-Is,-33.62,-78.78,0,Submarine volcano,Historical
Unnamed,Netherlands,W Indies,16.13,-61.28,-7,Submarine volcano,Historical
Unnamed,Atlantic Ocean,Atlantic-N,66,-27.75,-108,Submarine volcano,Uncertain
Unnamed,Atlantic Ocean,Atlantic-N,49,-34.5,-1650,Submarine volcano,Historical
Unnamed,Russia,Kuril Is,48.08,153.33,-150,Submarine volcano,Historical
Unnamed,Papua New Guinea,New Britain-SW Pac,-5.2,148.57,0,Submarine volcano,Uncertain
Unnamed,Syria,Syria,33.15,36.26,1197,Volcanic field,Holocene
Unnamed,Tonga,Tonga-SW Pacific,-21.38,-175.65,-500,Submarine volcano,Historical
Unnamed,Indonesia,Sangihe Is-Indonesia,3.97,124.17,-5000,Submarine volcano,Uncertain
Unnamed,Russia,Kamchatka,56.82,158.95,1185,Shield volcano,Holocene
Unnamed,Pacific Ocean,Pacific-S,-53.9,-140.3,-1000,Submarine volcano,Uncertain
Unnamed,Pacific Ocean,SW Pacific,-25.78,168.63,-2400,Submarine volcano,Hydrophonic
Unnamed,Solomon Is.,Solomon Is-SW Pacifi,-8.92,158.03,-240,Submarine volcanoes,Holocene
Unnamed,Pacific Ocean,Pacific-E,9.82,-104.3,-2500,Submarine volcano,Historical
Unnamed,Taiwan,Taiwan-E of,21.83,121.18,-115,Submarine volcano,Historical
Unnamed,Taiwan,Taiwan-E of,20.93,134.75,-6000,Submarine volcano,Uncertain
Unnamed,Tonga,Tonga-SW Pacific,-20.85,-175.53,-13,Submarine volcano,Historical
Unnamed,Iran,Iran,39.25,45.17,,Volcanic field,Holocene
Unnamed,Tonga,Tonga-SW Pacific,-24.8,-177.02,-385,Submarine volcano,Fumarolic
Unnamed,Tonga,Tonga-SW Pacific,-21.15,-175.75,-65,Submarine volcano,Holocene
Unnamed,Tonga,Tonga-SW Pacific,-18.33,-174.37,-40,Submarine volcano,Historical
Unnamed,Japan,Volcano Is-Japan,26.13,144.48,-3200,Submarine volcano?,Uncertain
Unnamed,United States,Mariana Is-C Pacific,21,142.9,,Submarine volcano?,Uncertain
Unnamed,United States,Mariana Is-C Pacific,20.3,143.2,,Submarine volcano?,Uncertain
Unnamed,Pacific Ocean,Pacific-NE,31.75,-124.25,-2533,Submarine volcano?,Uncertain
Unnamed,Pacific Ocean,Pacific-E,10.73,-103.58,,Submarine volcano,Historical
Unnamed,Pacific Ocean,Pacific-E,9.83,-104.3,-2500,Submarine volcano,Historical
Unnamed,Pacific Ocean,Pacific-E,-8.27,-107.95,-2800,Submarine volcano,Historical
Unnamed,Pacific Ocean,Pacific-S,-53.9,-140.3,-1000,Submarine volcano,Uncertain
Unnamed,Pacific Ocean,Pacific-S,-55.97,-143.17,,Submarine volcano,Uncertain
Unnamed,Argentina,Argentina,-25.1,-68.27,,Pyroclastic cone,Holocene?
Unnamed,Arctic Ocean,Arctic Ocean,85.58,85,-3800,Submarine volcano,Holocene
Unnamed,Georgia,Georgia,42.45,44.25,3750,Cinder cone,Holocene
Unnamed,Atlantic Ocean,Atlantic-C,7,-21.83,-1415,Submarine volcano,Uncertain
Unnamed,Ethiopia,Africa-NE,8.62,38.95,1800,Fissure vent,Holocene
Unnamed,Atlantic Ocean,Atlantic-C,-0.58,-15.83,-1528,Submarine volcano,Historical
Unnamed,Antarctica,Antarctica,-73.45,164.58,2987,Scoria cone,Holocene
Unnamed,Ethiopia,Africa-NE,8.7,39.63,1300,Pyroclastic cone,Holocene
Unnamed,Antarctica,Antarctica,-76.83,163,-500,Submarine volcano,Holocene
Unnamed,Ethiopia,Africa-NE,8.07,39.07,1800,Fissure vent,Holocene
Unnamed,Ethiopia,Africa-NE,7.95,38.93,1889,Fissure vent,Holocene
Unnamed,Atlantic Ocean,Atlantic-C,-3.5,-24.5,-5300,Submarine volcano,Uncertain
Unnamed,Atlantic Ocean,Atlantic-C,4.2,-21.45,-2900,Submarine volcano,Uncertain
Unnamed,Georgia,Georgia,41.55,43.6,3400,Lava cone,Holocene
Unnamed,Ethiopia,Africa-NE,5.65,37.67,1200,Cinder cone,Holocene
Unnamed,Chile,Chile-Is,-33.62,-76.83,-642,Submarine volcano,Uncertain
Unnamed,Arctic Ocean,Arctic Ocean,88.27,-65.6,-1500,Submarine volcano,Historical
Unnamed,Atlantic Ocean,Atlantic-N,38.75,-38.08,-4200,Submarine volcano,Historical
Unnamed,Atlantic Ocean,Atlantic-N,39.95,-25.83,-2835,Submarine volcano,Uncertain
Unzen,Japan,Kyushu-Japan,32.75,130.3,1500,Complex volcano,Historical
Upolu,Samoa,Samoa-SW Pacific,-13.94,-171.72,1100,Shield volcano,Holocene
Urataman,Russia,Kuril Is,47.12,152.23,678,Somma volcano,Holocene
Ushishur,Russia,Kuril Is,47.52,152.8,401,Caldera,Historical
Ushkovsky,Russia,Kamchatka,56.11,160.47,3943,Compound volcano,Historical
Usu,Japan,Hokkaido-Japan,42.53,140.83,731,Stratovolcano,Historical
Usulutan,El Salvador,El Salvador,13.42,-88.47,1449,Stratovolcano,Holocene
Utila Island,Honduras,Honduras,16.1,-86.9,90,Pyroclastic cone,Holocene
Uwayrid. Harrat,Saudi Arabia,Arabia-W,27.08,37.25,1900,Volcanic field,Anthropology
Uzon,Russia,Kamchatka,54.5,159.97,1617,Caldera,Radiocarbon
Vakak Group,Afghanistan,Afghanistan,34.25,67.97,3190,Volcanic field,Holocene
Valle. El,Panama,Panama,8.58,-80.17,1185,Stratovolcano,Holocene?
Veniaminof,United States,Alaska Peninsula,56.17,-159.38,2507,Stratovolcano,Historical
Verkhovoy,Russia,Kamchatka,56.52,159.53,1400,Shield volcano,Holocene
Vernadskii Ridge,Russia,Kuril Is,50.55,155.97,1183,Cinder cone,Holocene
Vestmannaeyjar,Iceland,Iceland-S,63.43,-20.28,279,Submarine volcano,Historical
Vesuvius,Italy,Italy,40.82,14.43,1281,Complex volcano,Historical
Veteran,Vietnam,SE Asia,9.83,109.05,0,Submarine volcano,Fumarolic
Victory,Papua New Guinea,New Guinea,-9.2,149.07,1925,Stratovolcano,Historical
Viedma. Volcan,Argentina,Argentina,-49.36,-73.28,1300,Subglacial volcano,Historical
Villarrica,Chile,Chile-C,-39.42,-71.93,2847,Stratovolcano,Historical
Vilyuchik,Russia,Kamchatka,52.68,158.3,2173,Stratovolcano,Tephrochronology
Visoke,Rwanda,Africa-C,-1.47,29.49,3711,Stratovolcano,Historical
Volcanico. Cerro,Argentina,Argentina,-42.07,-71.65,0,Cinder cone,Holocene
Volcano W,New Zealand,Kermadec Is,-31.85,-179.18,-900,Submarine volcanoes,Fumarolic
Voon. Tarso,Chad,Africa-N,20.92,17.28,3100,Stratovolcano,Fumarolic
Voyampolsky,Russia,Kamchatka,58.37,160.62,1225,Shield volcano,Holocene
Vsevidof,United States,Aleutian Is,53.13,-168.68,2149,Stratovolcano,Historical
Vulcano,Italy,Italy,38.4,14.96,500,Stratovolcano,Historical
Vulsini,Italy,Italy,42.6,11.93,800,Caldera,Historical
Waesche,Antarctica,Antarctica,-77.17,-126.88,3292,Shield volcano,Holocene
Waiowa,Papua New Guinea,New Guinea,-9.57,149.08,640,Pyroclastic cone,Historical
Wallis Islands,Wallis & Futuna,SW Pacific,-13.3,-176.17,143,Shield volcano,Holocene
Walo,Papua New Guinea,New Britain-SW Pac,-5.53,150.9,15,Hydrothermal field,Hot Springs
Wapi Lava Field,United States,US-Idaho,42.88,-113.22,1604,Shield volcano,Radiocarbon
Washiba-Kumonotaira,Japan,Honshu-Japan,36.4,137.5,2924,Shield volcano,Tephrochronology
Watt. Morne,Dominica,W Indies,15.31,-61.31,1224,Stratovolcanoes,Historical
Wau-en-Namus,Libya,Africa-N,25.05,17.55,547,Caldera,Holocene?
Wayang-Windu,Indonesia,Java,-7.21,107.63,2182,Lava dome,Fumarolic
Wells Gray-Clearwater,Canada,Canada,52.33,-120.57,2015,Cinder cone,Dendrochronology
West Crater,United States,US-Washington,45.88,-122.08,1329,Volcanic field,Radiocarbon
West Eifel Volc Field,Germany,Germany,50.17,6.85,600,Maar,Radiocarbon
West Mata,Tonga,Tonga-SW Pacific,-15.1,-173.75,-1174,Submarine volcano,Historical
Westdahl,United States,Aleutian Is,54.52,-164.65,1654,Stratovolcano,Historical
Whangarei,New Zealand,New Zealand,-35.75,174.27,397,Cinder cone,Holocene
White Island,New Zealand,New Zealand,-37.52,177.18,321,Stratovolcano,Historical
Wilis,Indonesia,Java,-7.81,111.76,2563,Stratovolcano,Holocene
Wolf. Volcan,Ecuador,Galapagos,0.02,-91.35,1710,Shield volcano,Historical
Wrangell,United States,Alaska-E,62,-144.02,4317,Shield volcano,Historical
Wudalianchi,China,China-E,48.72,126.12,597,Volcanic field,Historical
Wurlali,Indonesia,Banda Sea,-7.13,128.68,868,Stratovolcano,Historical
Xianjindao,North Korea,Korea,41.33,128,0,Unknown,Historical
Yake-dake,Japan,Honshu-Japan,36.22,137.58,2455,Stratovolcano,Historical
Yali,Greece,Greece,36.63,27.1,176,Lava dome,Holocene
Yangudi,Ethiopia,Africa-NE,10.58,41.04,1383,Complex volcano,Holocene
Yantarni,United States,Alaska Peninsula,57.02,-157.18,1336,Stratovolcano,Tephrochronology
Yanteles,Chile,Chile-S,-43.5,-72.8,2042,Stratovolcanoes,Radiocarbon
Yanteles. Cerro,Chile,Chile-S,-43.42,-72.83,2050,Stratovolcano,Historical
Yar. Jabal,Saudi Arabia,Arabia-W,17.05,42.83,305,Volcanic field,Historical
Yasur,Vanuatu,Vanuatu-SW Pacific,-19.52,169.43,361,Stratovolcano,Historical
Yate,Chile,Chile-S,-41.76,-72.4,2187,Stratovolcano,Holocene
Yelia,Papua New Guinea,New Guinea,-7.05,145.86,3384,Stratovolcano,Holocene
Yellowstone,United States,US-Wyoming,44.43,-110.67,2805,Caldera,Tephrochronology
Yersey,Indonesia,Lesser Sunda Is,-7.53,123.95,-3800,Submarine volcano,Uncertain
Yojoa. Lake,Honduras,Honduras,14.98,-87.98,1090,Volcanic field,Holocene
Yomba,Papua New Guinea,New Guinea-NE of,-4.92,146.75,0,Unknown,Uncertain
Yotei,Japan,Hokkaido-Japan,42.83,140.82,1893,Stratovolcano,Radiocarbon
Young Island,Antarctica,Antarctica,-66.42,162.45,1340,Stratovolcano,Fumarolic
Yucamane,Peru,Peru,-17.18,-70.2,5550,Stratovolcano,Historical
Yumia. Cerro,Bolivia,Bolivia,-21.5,-67.5,4050,Cone,Holocene
Yunaska,United States,Aleutian Is,52.63,-170.63,550,Shield volcano,Historical
Zacate Grande. Isla,Honduras,Honduras,13.33,-87.63,600,Stratovolcano,Holocene
Zao,Japan,Honshu-Japan,38.15,140.45,1841,Complex volcano,Historical
Zaozerny,Russia,Kamchatka,56.88,159.95,1349,Shield volcano,Holocene
Zapatera,Nicaragua,Nicaragua,11.73,-85.82,629,Shield volcano,Holocene
Zavaritsky,Russia,Kamchatka,53.91,158.39,1567,Cinder cones,Radiocarbon
Zavaritsky,Russia,Kamchatka,53.91,158.39,1567,Stratovolcano,Radiocarbon
Zavaritzki Caldera,Russia,Kuril Is,46.93,151.95,624,Caldera,Historical
Zavodovski,Antarctica,Antarctica,-56.3,-27.57,551,Stratovolcano,Historical
Zengyu,Taiwan,Taiwan-N of,26.18,122.46,-418,Submarine volcano,Historical
Zheltovsky,Russia,Kamchatka,51.57,157.32,1953,Stratovolcano,Historical
Zhupanovsky,Russia,Kamchatka,53.59,159.15,2958,Compound volcano,Historical
Zimina,Russia,Kamchatka,55.86,160.6,3081,Stratovolcano,Holocene
Zubair. Jebel,Yemen,Red Sea,15.05,42.18,191,Shield volcano,Historical
Zukur,Yemen,Red Sea,14.02,42.75,624,Shield volcano,Holocene
Zuni-Bandera,United States,US-New Mexico,34.8,-108,2550,Volcanic field,Anthropology

